id,biz_account,email,biz_alias,prev_biz_alias,phone,street_addr,state,zip_code,country,prev_addr,official_flag,registered_dt,updated_dt
VEND0001,kirlin_1,kirlin_1@vend.com,Kirlin and Sons,,843138706,351 Darlene Green,Queensland,9209,Australia,,True,2022-11-04 04:10:44,2022-11-04 04:10:44
VEND0002,sporer_2,sporer_2@vend.com,Sporer-Keebler,,657402165,3638 Marsh Union,Queensland,4002,Australia,,True,2022-11-07 21:38:27,2022-11-07 21:38:27
VEND0003,swaniawski_3,swaniawski_3@vend.com,"Swaniawski, Nitzsche and Welch",,860238257,9333 Valentine Point,New South Wales,1710,Australia,,False,2022-11-08 02:58:49,2022-11-08 02:58:49
VEND0004,haley_4,haley_4@vend.com,Haley Group,,431665303,32941 Krystal Mill Apt. 552,New South Wales,2780,Australia,,False,2022-11-08 16:05:48,2022-11-08 16:05:48
VEND0005,johnston_5,johnston_5@vend.com,Johnston-Casper,,962138374,5783 Evan Roads Apt. 465,Queensland,9632,Australia,,False,2022-11-08 19:29:08,2022-11-08 19:29:08
VEND0006,daugherty_6,daugherty_6@vend.com,Daugherty LLC,,17235499,76752 David Lodge Apt. 064,Queensland,4816,Australia,,False,2022-11-13 19:11:38,2022-11-13 19:11:38
VEND0007,romaguera_7,romaguera_7@vend.com,Romaguera Ltd,,618691259,010 Weaver Land,South Australia,5528,Australia,,False,2022-11-15 07:42:25,2022-11-15 07:42:25
VEND0008,reichel_8,reichel_8@vend.com,Reichel LLC,,358772912,350 Stacy Glens,Tasmania,7374,Australia,,False,2022-11-16 18:42:12,2022-11-16 18:42:12
VEND0009,goyette_9,goyette_9@vend.com,"Goyette, Howell and Collier",,433095629,4138 David Fall,Western Australia,6858,Australia,,True,2022-11-16 22:12:50,2022-11-16 22:12:50
VEND0010,kilback_10,kilback_10@vend.com,Kilback Group,,931703207,7921 Robert Port Suite 343,Western Australia,6678,Australia,,False,2022-11-17 13:55:18,2022-11-17 13:55:18
VEND0011,feil_11,feil_11@vend.com,"Feil, Hilpert and Koss",,996888716,43235 Mckenzie Views Apt. 837,New South Wales,2077,Australia,,False,2022-11-18 00:40:26,2022-11-18 00:40:26
VEND0012,gottlieb_12,gottlieb_12@vend.com,Gottlieb Group,,234918950,45654 Hess Rest,New South Wales,2514,Australia,,False,2022-11-18 13:56:50,2022-11-18 13:56:50
VEND0013,connelly_13,connelly_13@vend.com,Connelly-Carter,,674063249,244 Abbott Parkway,Victoria,3470,Australia,,True,2022-11-19 11:46:52,2022-11-19 11:46:52
VEND0014,bechtelar_14,bechtelar_14@vend.com,Bechtelar-Rippin,,177016567,977 Rita Grove Apt. 000,New South Wales,2575,Australia,,False,2022-11-20 10:17:54,2022-11-20 10:17:54
VEND0015,lubowitz_15,lubowitz_15@vend.com,Lubowitz-Walter,,628639996,4038 Smith Avenue,Western Australia,6749,Australia,,False,2022-11-21 20:40:00,2022-11-21 20:40:00
VEND0016,welch_16,welch_16@vend.com,"Welch, Rath and Koepp",,765449869,5097 Jodi Vista Suite 811,New South Wales,2725,Australia,,True,2022-11-22 04:40:37,2022-11-22 04:40:37
VEND0017,hickle_17,hickle_17@vend.com,Hickle Group,,560454237,838 Franklin Prairie Apt. 902,Victoria,3040,Australia,,False,2022-11-24 17:18:50,2022-11-24 17:18:50
VEND0018,lang_18,lang_18@vend.com,"Lang, Towne and Schuppe",,786198321,03030 White Lakes,Western Australia,6050,Australia,,False,2022-11-25 04:37:53,2022-11-25 04:37:53
VEND0019,morissette_19,morissette_19@vend.com,Morissette LLC,,618443244,65417 Walsh Radial Suite 691,New South Wales,2774,Australia,,True,2022-11-25 12:48:22,2022-11-25 12:48:22
VEND0020,prosacco_20,prosacco_20@vend.com,Prosacco LLC,,848798080,444 Robert Mews,Western Australia,6114,Australia,,True,2022-11-25 17:24:53,2022-11-25 17:24:53
VEND0021,corwin_21,corwin_21@vend.com,Corwin-Romaguera,,452667626,9345 Spencer Junctions Suite 183,New South Wales,2009,Australia,,True,2022-11-26 02:59:28,2022-11-26 02:59:28
VEND0022,tillman_22,tillman_22@vend.com,Tillman LLC,,638447911,28711 Kristine Junction Suite 309,South Australia,5331,Australia,,False,2022-11-26 12:40:26,2022-11-26 12:40:26
VEND0023,veum_23,veum_23@vend.com,Veum-Koelpin,,101193493,181 Moreno Light Apt. 215,Queensland,4487,Australia,,False,2022-11-28 12:32:05,2022-11-28 12:32:05
VEND0024,watsica_24,watsica_24@vend.com,"Watsica, Haag and Considine",,996134423,26544 Andrea Glen,Victoria,8438,Australia,,True,2022-11-28 13:42:39,2022-11-28 13:42:39
VEND0025,leannon_25,leannon_25@vend.com,Leannon-Ward,,249875050,508 Erin Mount,Queensland,4015,Australia,,True,2022-11-29 16:03:54,2022-11-29 16:03:54
VEND0026,hintz_26,hintz_26@vend.com,"Hintz, Bauch and Smith",,896086378,50843 Vincent Mission,South Australia,5155,Australia,,False,2022-11-30 10:37:42,2022-11-30 10:37:42
VEND0027,labadie_27,labadie_27@vend.com,Labadie LLC,,960728692,7233 John Parks,New South Wales,2354,Australia,,False,2022-11-30 22:39:41,2022-11-30 22:39:41
VEND0028,eichmann_28,eichmann_28@vend.com,"Eichmann, Hayes and Treutel",,128500325,659 Nicole Cove Suite 560,Tasmania,7358,Australia,,False,2022-12-01 00:20:45,2022-12-01 00:20:45
VEND0029,leffler_29,leffler_29@vend.com,Leffler-Goldner,,814094741,022 Moore Island,New South Wales,2162,Australia,,False,2022-12-01 13:28:27,2022-12-01 13:28:27
VEND0030,kautzer_30,kautzer_30@vend.com,Kautzer and Sons,,91693301,5537 Jessica Plaza,New South Wales,2056,Australia,,False,2022-12-01 19:14:36,2022-12-01 19:14:36
VEND0031,ernser_31,ernser_31@vend.com,Ernser-Feest,,776410929,2481 Mills Lock,Tasmania,7060,Australia,,False,2022-12-02 00:48:32,2022-12-02 00:48:32
VEND0032,zemlak_32,zemlak_32@vend.com,"Zemlak, Tillman and Cremin",,613125071,384 Newman Forks Apt. 370,New South Wales,2421,Australia,,False,2022-12-03 20:16:37,2022-12-03 20:16:37
VEND0033,nienow_33,nienow_33@vend.com,Nienow PLC,,494243023,982 Melissa Lock,Victoria,3801,Australia,,False,2022-12-04 11:29:32,2022-12-04 11:29:32
VEND0034,lynch_34,lynch_34@vend.com,Lynch-Wisozk,,669219150,47152 Clayton Burg,New South Wales,1102,Australia,,True,2022-12-04 12:57:12,2022-12-04 12:57:12
VEND0035,schiller_35,schiller_35@vend.com,Schiller Ltd,,239843670,17547 Stephen Turnpike Apt. 846,New South Wales,2250,Australia,,False,2022-12-04 13:15:05,2022-12-04 13:15:05
VEND0036,hoppe_36,hoppe_36@vend.com,Hoppe-Parisian,,814635263,06393 Nancy Parkways Suite 855,South Australia,5903,Australia,,False,2022-12-06 13:17:52,2022-12-06 13:17:52
VEND0037,brown_37,brown_37@vend.com,Brown-Greenholt,,527758368,69252 Oconnor Alley Apt. 153,New South Wales,2576,Australia,,True,2022-12-06 18:55:20,2022-12-06 18:55:20
VEND0038,reilly_38,reilly_38@vend.com,Reilly LLC,,563567307,50872 Alex Plain Suite 088,New South Wales,2808,Australia,,False,2022-12-06 23:05:39,2022-12-06 23:05:39
VEND0039,moore_39,moore_39@vend.com,"Moore, Williamson and Emmerich",,480582202,4130 Tiffany Glen Apt. 562,Victoria,8248,Australia,,False,2022-12-07 12:03:55,2022-12-07 12:03:55
VEND0040,rau_40,rau_40@vend.com,Rau-Robel,,620718500,81261 Garcia Underpass Suite 741,Victoria,8034,Australia,,False,2022-12-09 13:46:16,2022-12-09 13:46:16
VEND0041,fadel_41,fadel_41@vend.com,"Fadel, Mertz and Rippin",,436772018,13108 Jennifer Passage,Tasmania,7556,Australia,,False,2022-12-09 20:37:31,2022-12-09 20:37:31
VEND0042,crona_42,crona_42@vend.com,Crona and Sons,,944193049,25036 Contreras Turnpike Suite 270,Western Australia,6566,Australia,,False,2022-12-09 22:10:56,2022-12-09 22:10:56
VEND0043,bahringer_43,bahringer_43@vend.com,"Bahringer, Bergnaum and Quitzon",,727014157,908 Brooks Brook,New South Wales,1454,Australia,,True,2022-12-10 07:53:22,2022-12-10 07:53:22
VEND0044,koss_44,koss_44@vend.com,"Koss, Hansen and Lueilwitz",,402971899,8617 Holmes Terrace Suite 651,New South Wales,1790,Australia,,True,2022-12-10 17:22:02,2022-12-10 17:22:02
VEND0045,yost_45,yost_45@vend.com,"Yost, Schamberger and Windler",,707841315,3789 Mark Walks,Victoria,8778,Australia,,True,2022-12-11 02:26:05,2022-12-11 02:26:05
VEND0046,armstrong_46,armstrong_46@vend.com,"Armstrong, Walter and Gottlieb",,109736646,6682 Green Forks,Tasmania,7439,Australia,,True,2022-12-11 02:46:36,2022-12-11 02:46:36
VEND0047,friesen_47,friesen_47@vend.com,Friesen Ltd,,427013979,1898 Parker Fork Apt. 057,Victoria,3665,Australia,,False,2022-12-11 05:25:30,2022-12-11 05:25:30
VEND0048,champlin_48,champlin_48@vend.com,Champlin and Sons,,819615012,426 Mark Ports,Queensland,4616,Australia,,False,2022-12-12 01:16:27,2022-12-12 01:16:27
VEND0049,bins_49,bins_49@vend.com,Bins-Tillman,,845434667,34180 Lopez Plaza,South Australia,5537,Australia,,False,2022-12-12 02:57:55,2022-12-12 02:57:55
VEND0050,douglas_50,douglas_50@vend.com,Douglas-White,,122155477,45654 Hess Rest,New South Wales,2514,Australia,,True,2022-12-12 12:11:22,2022-12-12 12:11:22
VEND0051,hermiston_51,hermiston_51@vend.com,"Hermiston, Pacocha and Smith",,66385084,19838 Tonya Prairie Apt. 947,South Australia,5072,Australia,,False,2022-12-12 17:24:05,2022-12-12 17:24:05
VEND0052,denesik_52,denesik_52@vend.com,"Denesik, Powlowski and Pouros",,487640756,49120 Regina Island Apt. 170,Queensland,4953,Australia,,False,2022-12-13 03:05:46,2022-12-13 03:05:46
VEND0053,nader_53,nader_53@vend.com,Nader-Maggio,,28321766,25887 Martin Inlet,South Australia,5654,Australia,,False,2022-12-13 09:11:16,2022-12-13 09:11:16
VEND0054,o_54,o_54@vend.com,"O'Reilly, Mohr and Purdy",,94974360,39787 Pamela Fall Suite 639,Victoria,8079,Australia,,True,2022-12-13 09:38:01,2022-12-13 09:38:01
VEND0055,o_55,o_55@vend.com,O'Connell-Ullrich,,604511588,330 Montoya Ramp,New South Wales,2036,Australia,,False,2022-12-13 18:46:35,2022-12-13 18:46:35
VEND0056,bauch_56,bauch_56@vend.com,Bauch-Blanda,,893664860,6970 Blake Trail,Victoria,3760,Australia,,False,2022-12-14 02:39:32,2022-12-14 02:39:32
VEND0057,ruecker_57,ruecker_57@vend.com,"Ruecker, Beer and Collier",,842374545,4970 Michelle Burgs,New South Wales,1217,Australia,,False,2022-12-14 03:18:44,2022-12-14 03:18:44
VEND0058,berge_58,berge_58@vend.com,Berge-Hills,,491748959,8172 Robertson Parkways Suite 072,South Australia,5173,Australia,,False,2022-12-14 16:51:32,2022-12-14 16:51:32
VEND0059,white_59,white_59@vend.com,White and Sons,,138426781,725 Jo Trace Apt. 102,New South Wales,1206,Australia,,True,2022-12-14 22:07:20,2022-12-14 22:07:20
VEND0060,adams_60,adams_60@vend.com,Adams-Barrows,,727291876,428 Morgan River,New South Wales,2534,Australia,,False,2022-12-15 03:15:40,2022-12-15 03:15:40
VEND0061,pouros_61,pouros_61@vend.com,Pouros-Haag,,210836308,22084 Smith Roads Suite 776,Tasmania,7036,Australia,,False,2022-12-15 11:01:43,2022-12-15 11:01:43
VEND0062,hahn_62,hahn_62@vend.com,"Hahn, Bahringer and McLaughlin",,464860824,87665 Karen Mill Apt. 586,Victoria,3967,Australia,,False,2022-12-15 13:40:25,2022-12-15 13:40:25
VEND0063,ziemann_63,ziemann_63@vend.com,Ziemann-Waters,,540972310,659 Nicole Cove Suite 560,Tasmania,7358,Australia,,True,2022-12-15 23:37:18,2022-12-15 23:37:18
VEND0064,wuckert_64,wuckert_64@vend.com,"Wuckert, Wintheiser and Friesen",,598619099,9795 Lori Island Suite 346,Queensland,9542,Australia,,False,2022-12-16 18:10:33,2022-12-16 18:10:33
VEND0065,bednar_65,bednar_65@vend.com,Bednar PLC,,586969356,269 Sanchez Rapids,Tasmania,7208,Australia,,False,2022-12-16 19:59:56,2022-12-16 19:59:56
VEND0066,kihn_66,kihn_66@vend.com,Kihn Inc,,681492230,72966 Shannon Pass Apt. 391,New South Wales,2011,Australia,,True,2022-12-18 08:35:48,2022-12-18 08:35:48
VEND0067,fisher_67,fisher_67@vend.com,Fisher Inc,,937662466,01892 Patricia Vista Apt. 828,South Australia,5048,Australia,,False,2022-12-18 22:16:48,2022-12-18 22:16:48
VEND0068,schneider_68,schneider_68@vend.com,"Schneider, Hayes and Nikolaus",,725275050,7188 Melissa Crest Apt. 151,Victoria,3061,Australia,,True,2022-12-19 05:10:02,2022-12-19 05:10:02
VEND0069,greenholt_69,greenholt_69@vend.com,"Greenholt, O'Hara and Balistreri",,236465059,3337 Lisa Divide,Victoria,3710,Australia,,True,2022-12-19 06:39:32,2022-12-19 06:39:32
VEND0070,gottlieb_70,gottlieb_70@vend.com,Gottlieb-Hansen,,345354880,494 Burke Ports,South Australia,5324,Australia,,True,2022-12-19 11:27:09,2022-12-19 11:27:09
VEND0071,douglas_71,douglas_71@vend.com,"Douglas, Schneider and Turner",,395708703,6447 Johnson Estates Apt. 986,Victoria,3564,Australia,,False,2022-12-19 18:04:55,2022-12-19 18:04:55
VEND0072,gutmann_72,gutmann_72@vend.com,"Gutmann, McLaughlin and Wiza",,8444788,7618 Gonzales Mission,Queensland,4019,Australia,,False,2022-12-19 22:51:54,2022-12-19 22:51:54
VEND0073,weber_73,weber_73@vend.com,Weber and Sons,,742182628,4215 Miranda Field Suite 326,Western Australia,6237,Australia,,False,2022-12-19 23:53:06,2022-12-19 23:53:06
VEND0074,bartoletti_74,bartoletti_74@vend.com,Bartoletti and Sons,,993458389,0495 Baker Manors,Victoria,3425,Australia,,False,2022-12-20 07:24:32,2022-12-20 07:24:32
VEND0075,powlowski_75,powlowski_75@vend.com,Powlowski-Weimann,,245334757,16285 Jessica Lights,South Australia,5229,Australia,,False,2022-12-20 08:37:07,2022-12-20 08:37:07
VEND0076,lakin_76,lakin_76@vend.com,"Lakin, Ferry and Beatty",,442674264,24318 Dixon Mills,Queensland,9629,Australia,,True,2022-12-20 11:24:52,2022-12-20 11:24:52
VEND0077,terry_77,terry_77@vend.com,"Terry, Johns and Bins",,886862190,06730 Joshua Isle Suite 555,New South Wales,1535,Australia,,False,2022-12-20 12:02:33,2022-12-20 12:02:33
VEND0078,thiel_78,thiel_78@vend.com,Thiel-Thiel,,875419572,27718 Mason Bypass,South Australia,5051,Australia,,True,2022-12-21 07:15:27,2022-12-21 07:15:27
VEND0079,kuhn_79,kuhn_79@vend.com,Kuhn Group,,196229855,478 George Course Apt. 056,Victoria,8438,Australia,,False,2022-12-21 19:07:49,2022-12-21 19:07:49
VEND0080,schaefer_80,schaefer_80@vend.com,"Schaefer, Fay and Hilll",,336922781,411 Laurie Fords,Queensland,4927,Australia,,False,2022-12-21 19:47:06,2022-12-21 19:47:06
VEND0081,roberts_81,roberts_81@vend.com,"Roberts, Ryan and Smith",,217206093,3326 Hannah Fords,New South Wales,2524,Australia,,False,2022-12-22 05:37:08,2022-12-22 05:37:08
VEND0082,stiedemann_82,stiedemann_82@vend.com,Stiedemann Ltd,,365128314,7188 Melissa Crest Apt. 151,Victoria,3061,Australia,,False,2022-12-22 09:06:54,2022-12-22 09:06:54
VEND0083,pacocha_83,pacocha_83@vend.com,Pacocha-Weissnat,,58278399,43576 Kristina Islands,South Australia,5442,Australia,,True,2022-12-22 17:42:25,2022-12-22 17:42:25
VEND0084,homenick_84,homenick_84@vend.com,Homenick LLC,,839259330,979 Stewart Lake,Queensland,9809,Australia,,True,2022-12-23 09:34:46,2022-12-23 09:34:46
VEND0085,cartwright_85,cartwright_85@vend.com,Cartwright PLC,,438912406,952 Joseph Throughway,Queensland,9259,Australia,,True,2022-12-23 14:57:23,2022-12-23 14:57:23
VEND0086,kihn_86,kihn_86@vend.com,Kihn-Fritsch,,853415727,587 Bradley Inlet Suite 281,Queensland,4223,Australia,,False,2022-12-24 01:43:27,2022-12-24 01:43:27
VEND0087,lynch_87,lynch_87@vend.com,Lynch Ltd,,679093330,3861 Anderson Ramp Apt. 536,Victoria,3937,Australia,,True,2022-12-24 03:35:49,2022-12-24 03:35:49
VEND0088,klein_88,klein_88@vend.com,Klein Group,,969075198,61390 Hayes Port,Victoria,8174,Australia,,False,2022-12-24 11:02:05,2022-12-24 11:02:05
VEND0089,quitzon_89,quitzon_89@vend.com,Quitzon-Goyette,,407217576,86882 Desiree Camp Suite 047,New South Wales,1865,Australia,,True,2022-12-24 16:44:14,2022-12-24 16:44:14
VEND0090,greenholt_90,greenholt_90@vend.com,Greenholt Ltd,,989662068,8425 Daniel Knolls Suite 288,Queensland,9154,Australia,,True,2022-12-24 19:05:38,2022-12-24 19:05:38
VEND0091,bahringer_91,bahringer_91@vend.com,Bahringer Group,,998673805,474 Allen Haven,Victoria,8859,Australia,,False,2022-12-24 22:58:29,2022-12-24 22:58:29
VEND0092,hilpert_92,hilpert_92@vend.com,Hilpert-Conroy,,905211697,64851 Cole Turnpike,Western Australia,6344,Australia,,False,2022-12-25 09:30:16,2022-12-25 09:30:16
VEND0093,witting_93,witting_93@vend.com,"Witting, Beer and Ernser",,942333500,7118 Jessica Unions Apt. 789,Tasmania,7035,Australia,,False,2022-12-25 10:59:13,2022-12-25 10:59:13
VEND0094,breitenberg_94,breitenberg_94@vend.com,Breitenberg-Hermiston,,367958204,1497 West Gateway,New South Wales,1530,Australia,,True,2022-12-26 01:01:41,2022-12-26 01:01:41
VEND0095,friesen_95,friesen_95@vend.com,Friesen Inc,,824414510,433 Blake Roads Suite 967,Queensland,4874,Australia,,True,2022-12-26 01:31:50,2022-12-26 01:31:50
VEND0096,baumbach_96,baumbach_96@vend.com,"Baumbach, Strosin and Nicolas",,689712348,9734 Beard Fields Suite 885,Tasmania,7412,Australia,,True,2022-12-26 04:36:00,2022-12-26 04:36:00
VEND0097,rippin_97,rippin_97@vend.com,Rippin-VonRueden,,955908138,68276 Matthew Springs,South Australia,5858,Australia,,True,2022-12-26 09:36:10,2022-12-26 09:36:10
VEND0098,nienow_98,nienow_98@vend.com,"Nienow, Ankunding and Collier",,744676704,319 Wendy Fort Suite 179,Tasmania,7132,Australia,,False,2022-12-26 17:49:00,2022-12-26 17:49:00
VEND0099,schmidt_99,schmidt_99@vend.com,Schmidt and Sons,,109455173,28812 Charles Mill Apt. 628,Western Australia,6758,Australia,,False,2022-12-27 08:56:24,2022-12-27 08:56:24
VEND0100,prosacco_100,prosacco_100@vend.com,"Prosacco, Kreiger and Kovacek",,285557366,6296 John Keys Suite 858,New South Wales,2958,Australia,,True,2022-12-27 09:55:54,2022-12-27 09:55:54
VEND0101,schumm_101,schumm_101@vend.com,Schumm PLC,,367783500,44259 Beth Station Suite 215,Victoria,3754,Australia,,True,2022-12-27 15:06:54,2022-12-27 15:06:54
VEND0102,berge_102,berge_102@vend.com,Berge-Ullrich,,142395811,72269 Elizabeth Field Apt. 132,South Australia,5020,Australia,,True,2022-12-28 01:08:58,2022-12-28 01:08:58
VEND0103,roob_103,roob_103@vend.com,"Roob, Conn and Tremblay",,164394718,117 Natasha Vista Suite 936,South Australia,5452,Australia,,True,2022-12-28 01:54:35,2022-12-28 01:54:35
VEND0104,kihn_104,kihn_104@vend.com,Kihn-Schuster,,583804639,82448 Tucker Cliff,Victoria,3905,Australia,,False,2022-12-28 02:56:06,2022-12-28 02:56:06
VEND0105,monahan_105,monahan_105@vend.com,Monahan-Morar,,526871815,4503 Patricia Route,Victoria,3646,Australia,,False,2022-12-28 03:40:11,2022-12-28 03:40:11
VEND0106,botsford_106,botsford_106@vend.com,Botsford Ltd,,840372112,8152 Brittany Centers,South Australia,5218,Australia,,True,2022-12-28 15:19:38,2022-12-28 15:19:38
VEND0107,hamill_107,hamill_107@vend.com,Hamill-D'Amore,,986333370,767 Adam Mill Apt. 115,Tasmania,7533,Australia,,False,2022-12-28 16:42:05,2022-12-28 16:42:05
VEND0108,bradtke_108,bradtke_108@vend.com,"Bradtke, Torp and Bahringer",,54174496,67210 Lori Creek,South Australia,5092,Australia,,True,2022-12-28 21:03:16,2022-12-28 21:03:16
VEND0109,gaylord_109,gaylord_109@vend.com,Gaylord-Powlowski,,303769842,782 Lee Crossing Apt. 209,Victoria,8463,Australia,,False,2022-12-29 14:43:24,2022-12-29 14:43:24
VEND0110,mayert_110,mayert_110@vend.com,Mayert Group,,636330889,094 Owens Underpass,New South Wales,2650,Australia,,False,2022-12-29 21:40:36,2022-12-29 21:40:36
VEND0111,beier_111,beier_111@vend.com,Beier and Sons,,550088202,212 Mary Stream,Queensland,9613,Australia,,False,2022-12-30 01:50:15,2022-12-30 01:50:15
VEND0112,abbott_112,abbott_112@vend.com,Abbott-Steuber,,966588600,77921 Costa Villages,Tasmania,7403,Australia,,False,2022-12-30 11:36:11,2022-12-30 11:36:11
VEND0113,ernser_113,ernser_113@vend.com,Ernser-Lynch,,568869907,4970 Michelle Burgs,New South Wales,1217,Australia,,False,2022-12-30 12:43:30,2022-12-30 12:43:30
VEND0114,little_114,little_114@vend.com,Little Ltd,,378226512,372 Jeffrey Course,Queensland,9165,Australia,,True,2022-12-30 22:19:43,2022-12-30 22:19:43
VEND0115,gislason_115,gislason_115@vend.com,Gislason Group,,975266774,8925 Nicholas Points,New South Wales,2531,Australia,,True,2022-12-31 05:32:04,2022-12-31 05:32:04
VEND0116,stark_116,stark_116@vend.com,Stark-Koss,,255887819,670 Le Meadows Suite 250,Victoria,3811,Australia,,False,2022-12-31 08:06:15,2022-12-31 08:06:15
VEND0117,crist_117,crist_117@vend.com,"Crist, Jakubowski and Littel",,162461431,9331 Robert Passage Suite 327,Tasmania,7545,Australia,,False,2022-12-31 17:05:33,2022-12-31 17:05:33
VEND0118,kling_118,kling_118@vend.com,Kling-Ernser,,561796955,2870 Bean Terrace Apt. 756,Western Australia,6292,Australia,,False,2022-12-31 17:15:26,2022-12-31 17:15:26
VEND0119,cronin_119,cronin_119@vend.com,"Cronin, Kshlerin and Weber",,853886850,02110 Lucas Freeway Suite 517,New South Wales,1006,Australia,,False,2022-12-31 17:23:09,2022-12-31 17:23:09
VEND0120,upton_120,upton_120@vend.com,Upton PLC,,495028289,444 Robert Mews,Western Australia,6114,Australia,,False,2023-01-01 09:13:07,2023-01-01 09:13:07
VEND0121,carroll_121,carroll_121@vend.com,Carroll PLC,,2218955,33165 Larry Walks Suite 960,South Australia,5131,Australia,,False,2023-01-01 11:26:34,2023-01-01 11:26:34
VEND0122,effertz_122,effertz_122@vend.com,Effertz LLC,,767952109,393 Carroll Route Suite 197,New South Wales,1771,Australia,,False,2023-01-01 20:30:37,2023-01-01 20:30:37
VEND0123,windler_123,windler_123@vend.com,Windler LLC,,681102120,6970 Blake Trail,Victoria,3760,Australia,,False,2023-01-01 23:59:23,2023-01-01 23:59:23
VEND0124,satterfield_124,satterfield_124@vend.com,Satterfield-Lowe,,21480694,658 Diane Glen Apt. 677,Western Australia,6048,Australia,,True,2023-01-02 01:01:15,2023-01-02 01:01:15
VEND0125,schuppe_125,schuppe_125@vend.com,Schuppe-Schuppe,,444815170,572 Davis Mountains,Tasmania,7566,Australia,,False,2023-01-02 04:32:32,2023-01-02 04:32:32
VEND0126,nader_126,nader_126@vend.com,Nader-Heller,,541733740,302 Christina Islands,New South Wales,2171,Australia,,True,2023-01-02 07:17:40,2023-01-02 07:17:40
VEND0127,auer_127,auer_127@vend.com,Auer-West,,729849110,244 Abbott Parkway,Victoria,3470,Australia,,False,2023-01-02 08:26:29,2023-01-02 08:26:29
VEND0128,lesch_128,lesch_128@vend.com,"Lesch, D'Amore and Brown",,255211412,56812 Francis Courts,New South Wales,1524,Australia,,False,2023-01-02 23:12:07,2023-01-02 23:12:07
VEND0129,barrows_129,barrows_129@vend.com,Barrows PLC,,693194885,537 Rice Square Suite 040,South Australia,5150,Australia,,True,2023-01-03 13:03:14,2023-01-03 13:03:14
VEND0130,o_130,o_130@vend.com,"O'Connell, Botsford and Hand",,311904917,9795 Lori Island Suite 346,Queensland,9542,Australia,,False,2023-01-03 13:08:04,2023-01-03 13:08:04
VEND0131,bode_131,bode_131@vend.com,Bode-Schuster,,783502705,43809 Kenneth Circles Suite 152,Queensland,4983,Australia,,False,2023-01-04 07:43:39,2023-01-04 07:43:39
VEND0132,o_132,o_132@vend.com,O'Keefe-Wisoky,,560839669,14601 Downs Skyway Apt. 440,Western Australia,6951,Australia,,False,2023-01-04 10:32:10,2023-01-04 10:32:10
VEND0133,conroy_133,conroy_133@vend.com,Conroy-Emard,,601855250,821 Solis Points,Queensland,9440,Australia,,False,2023-01-04 22:41:52,2023-01-04 22:41:52
VEND0134,kutch_134,kutch_134@vend.com,Kutch-Ferry,,212938177,9886 Anita Drive,New South Wales,2514,Australia,,True,2023-01-05 02:02:02,2023-01-05 02:02:02
VEND0135,donnelly_135,donnelly_135@vend.com,Donnelly LLC,,265376804,01505 Amy Stravenue,South Australia,5415,Australia,,True,2023-01-05 05:31:00,2023-01-05 05:31:00
VEND0136,weimann_136,weimann_136@vend.com,Weimann-Lockman,,63547247,1497 West Gateway,New South Wales,1530,Australia,,True,2023-01-05 08:17:42,2023-01-05 08:17:42
VEND0137,runte_137,runte_137@vend.com,Runte-Mohr,,506355699,17666 David Valleys,New South Wales,2585,Australia,,False,2023-01-05 09:56:15,2023-01-05 09:56:15
VEND0138,dare_138,dare_138@vend.com,"Dare, Fritsch and Zboncak",,464215870,838 Franklin Prairie Apt. 902,Victoria,3040,Australia,,False,2023-01-05 15:26:08,2023-01-05 15:26:08
VEND0139,kihn_139,kihn_139@vend.com,"Kihn, Brakus and Goyette",,777115158,3653 Ryan Crossroad,Western Australia,6702,Australia,,True,2023-01-05 17:59:49,2023-01-05 17:59:49
VEND0140,medhurst_140,medhurst_140@vend.com,Medhurst PLC,,699449423,3861 Anderson Ramp Apt. 536,Victoria,3937,Australia,,True,2023-01-06 01:03:37,2023-01-06 01:03:37
VEND0141,waelchi_141,waelchi_141@vend.com,Waelchi Inc,,597930342,557 Lynn Garden Suite 907,Victoria,3869,Australia,,True,2023-01-06 10:42:42,2023-01-06 10:42:42
VEND0142,dickinson_142,dickinson_142@vend.com,Dickinson Ltd,,200299232,6313 Scott Trace,New South Wales,2963,Australia,,False,2023-01-06 12:13:17,2023-01-06 12:13:17
VEND0143,little_143,little_143@vend.com,"Little, Gutmann and Lynch",,790796238,444 Robert Mews,Western Australia,6114,Australia,,False,2023-01-07 01:12:17,2023-01-07 01:12:17
VEND0144,schaefer_144,schaefer_144@vend.com,Schaefer Ltd,,733778084,062 Carl Dam,New South Wales,2910,Australia,,False,2023-01-07 03:54:33,2023-01-07 03:54:33
VEND0145,ankunding_145,ankunding_145@vend.com,Ankunding LLC,,158249977,4970 Michelle Burgs,New South Wales,1217,Australia,,False,2023-01-07 07:02:04,2023-01-07 07:02:04
VEND0146,schoen_146,schoen_146@vend.com,Schoen-Quigley,,689372027,65417 Walsh Radial Suite 691,New South Wales,2774,Australia,,False,2023-01-07 18:45:11,2023-01-07 18:45:11
VEND0147,towne_147,towne_147@vend.com,Towne LLC,,535065573,17819 Jose Mount Suite 657,Queensland,9439,Australia,,False,2023-01-07 19:10:41,2023-01-07 19:10:41
VEND0148,hills_148,hills_148@vend.com,"Hills, Hegmann and Schaefer",,737924550,4970 Michelle Burgs,New South Wales,1217,Australia,,False,2023-01-07 22:19:54,2023-01-07 22:19:54
VEND0149,durgan_149,durgan_149@vend.com,"Durgan, Gislason and Spencer",,924165498,109 Brian Lights Apt. 504,South Australia,5077,Australia,,True,2023-01-07 22:31:29,2023-01-07 22:31:29
VEND0150,hauck_150,hauck_150@vend.com,"Hauck, Dietrich and Funk",,543825610,1683 Davidson Freeway,Queensland,4325,Australia,,False,2023-01-08 05:32:58,2023-01-08 05:32:58
VEND0151,lubowitz_151,lubowitz_151@vend.com,"Lubowitz, Terry and Stracke",,786085525,05050 Rogers Well Apt. 439,New South Wales,2901,Australia,,False,2023-01-08 14:41:24,2023-01-08 14:41:24
VEND0152,erdman_152,erdman_152@vend.com,Erdman-Ebert,,913904780,78652 Scott Ports,New South Wales,1330,Australia,,False,2023-01-08 17:58:50,2023-01-08 17:58:50
VEND0153,kub_153,kub_153@vend.com,Kub PLC,,647200979,3379 Williams Common,New South Wales,2120,Australia,,False,2023-01-09 00:14:19,2023-01-09 00:14:19
VEND0154,lehner_154,lehner_154@vend.com,"Lehner, Reichert and Mills",,233373220,01479 Murray Circle,Tasmania,7747,Australia,,False,2023-01-09 17:04:27,2023-01-09 17:04:27
VEND0155,schiller_155,schiller_155@vend.com,"Schiller, Blanda and Johnson",,751308702,5554 Mack Meadows,Queensland,4878,Australia,,True,2023-01-09 20:33:29,2023-01-09 20:33:29
VEND0156,bins_156,bins_156@vend.com,Bins-Howell,,996322265,673 Delgado Burg,Victoria,8323,Australia,,False,2023-01-10 08:00:07,2023-01-10 08:00:07
VEND0157,turcotte_157,turcotte_157@vend.com,"Turcotte, Batz and Buckridge",,252220172,94975 David Mews Apt. 316,Queensland,9085,Australia,,True,2023-01-10 10:44:33,2023-01-10 10:44:33
VEND0158,will_158,will_158@vend.com,Will Ltd,,97073221,836 Stephanie Union,Queensland,9621,Australia,,False,2023-01-10 13:03:48,2023-01-10 13:03:48
VEND0159,gibson_159,gibson_159@vend.com,Gibson-Deckow,,542681743,87665 Karen Mill Apt. 586,Victoria,3967,Australia,,False,2023-01-10 21:21:52,2023-01-10 21:21:52
VEND0160,treutel_160,treutel_160@vend.com,Treutel-King,,926034019,0665 Lisa Alley,Western Australia,6592,Australia,,True,2023-01-10 21:42:24,2023-01-10 21:42:24
VEND0161,schmidt_161,schmidt_161@vend.com,Schmidt-Larkin,,334441097,5939 Garcia Forges Suite 297,Victoria,8214,Australia,,False,2023-01-11 00:55:06,2023-01-11 00:55:06
VEND0162,windler_162,windler_162@vend.com,"Windler, Goodwin and Kovacek",,566639857,25748 John Wells,Victoria,8117,Australia,,False,2023-01-11 01:50:11,2023-01-11 01:50:11
VEND0163,medhurst_163,medhurst_163@vend.com,Medhurst Inc,,217896304,2788 Brittney Island,Queensland,4726,Australia,,False,2023-01-11 05:36:08,2023-01-11 05:36:08
VEND0164,breitenberg_164,breitenberg_164@vend.com,Breitenberg LLC,,845581490,27386 Snyder Station,Victoria,8371,Australia,,False,2023-01-11 18:40:02,2023-01-11 18:40:02
VEND0165,terry_165,terry_165@vend.com,Terry Ltd,,828414983,1497 West Gateway,New South Wales,1530,Australia,,False,2023-01-11 22:29:42,2023-01-11 22:29:42
VEND0166,runte_166,runte_166@vend.com,"Runte, Green and Emard",,129874770,67632 Martin Gateway,New South Wales,2732,Australia,,False,2023-01-12 04:54:07,2023-01-12 04:54:07
VEND0167,feil_167,feil_167@vend.com,Feil-Morar,,436242473,000 Jennifer Mills,Victoria,8027,Australia,,True,2023-01-12 11:14:07,2023-01-12 11:14:07
VEND0168,kilback_168,kilback_168@vend.com,Kilback and Sons,,381817520,857 Aaron Circles Suite 398,Queensland,9455,Australia,,False,2023-01-12 12:20:56,2023-01-12 12:20:56
VEND0169,conroy_169,conroy_169@vend.com,"Conroy, Balistreri and Gorczany",,807169438,77921 Costa Villages,Tasmania,7403,Australia,,False,2023-01-12 12:59:56,2023-01-12 12:59:56
VEND0170,schuppe_170,schuppe_170@vend.com,Schuppe LLC,,54598359,1561 Chase Grove,Victoria,3818,Australia,,True,2023-01-12 15:46:40,2023-01-12 15:46:40
VEND0171,renner_171,renner_171@vend.com,Renner Ltd,,399591920,07712 Marcus Divide Apt. 831,New South Wales,2637,Australia,,False,2023-01-12 18:34:41,2023-01-12 18:34:41
VEND0172,romaguera_172,romaguera_172@vend.com,"Romaguera, Wehner and Tromp",,426683924,181 Moreno Light Apt. 215,Queensland,4487,Australia,,False,2023-01-12 21:34:22,2023-01-12 21:34:22
VEND0173,mckenzie_173,mckenzie_173@vend.com,McKenzie-Huels,,243907487,25454 Leonard Lake,South Australia,5686,Australia,,True,2023-01-13 01:28:06,2023-01-13 01:28:06
VEND0174,dare_174,dare_174@vend.com,Dare-Marvin,,480398758,21447 Powell Circle,New South Wales,2572,Australia,,False,2023-01-13 04:03:16,2023-01-13 04:03:16
VEND0175,gleason_175,gleason_175@vend.com,Gleason and Sons,,75240003,28812 Charles Mill Apt. 628,Western Australia,6758,Australia,,True,2023-01-13 07:07:47,2023-01-13 07:07:47
VEND0176,cole_176,cole_176@vend.com,"Cole, Hills and Jewess",,512895305,9554 Flores Drive,Victoria,3010,Australia,,False,2023-01-13 07:13:17,2023-01-13 07:13:17
VEND0177,roob_177,roob_177@vend.com,Roob-Okuneva,,200497576,7535 Amanda Manors Suite 293,New South Wales,1960,Australia,,False,2023-01-13 08:23:48,2023-01-13 08:23:48
VEND0178,padberg_178,padberg_178@vend.com,Padberg-Sauer,,679414981,7188 Melissa Crest Apt. 151,Victoria,3061,Australia,,False,2023-01-13 09:10:52,2023-01-13 09:10:52
VEND0179,gerhold_179,gerhold_179@vend.com,Gerhold LLC,,532437704,184 Miller Manors,Queensland,4499,Australia,,False,2023-01-13 13:06:33,2023-01-13 13:06:33
VEND0180,botsford_180,botsford_180@vend.com,Botsford and Sons,,735643685,555 Michael Burgs,Queensland,9113,Australia,,False,2023-01-13 15:23:49,2023-01-13 15:23:49
VEND0181,volkman_181,volkman_181@vend.com,Volkman-Predovic,,93764340,0110 Ashley Forest,Queensland,9033,Australia,,False,2023-01-14 00:43:05,2023-01-14 00:43:05
VEND0182,dare_182,dare_182@vend.com,Dare-Gibson,,612312697,71309 Martinez Stravenue,Tasmania,7663,Australia,,True,2023-01-14 05:56:10,2023-01-14 05:56:10
VEND0183,rempel_183,rempel_183@vend.com,Rempel Inc,,830304681,98897 Bennett Lodge,South Australia,5022,Australia,,False,2023-01-14 19:32:03,2023-01-14 19:32:03
VEND0184,torphy_184,torphy_184@vend.com,Torphy-Kertzmann,,743669224,1652 James Mews,Queensland,4233,Australia,,False,2023-01-15 10:01:45,2023-01-15 10:01:45
VEND0185,runolfsdottir_185,runolfsdottir_185@vend.com,"Runolfsdottir, Mueller and Hand",,329966782,502 Rice Plaza Apt. 979,New South Wales,2466,Australia,,True,2023-01-15 12:35:03,2023-01-15 12:35:03
VEND0186,torp_186,torp_186@vend.com,"Torp, Muller and Borer",,424426862,835 Reese Views Suite 884,Queensland,9061,Australia,,False,2023-01-15 14:14:02,2023-01-15 14:14:02
VEND0187,abshire_187,abshire_187@vend.com,Abshire PLC,,109339866,7178 Willis Drive,Victoria,8031,Australia,,False,2023-01-15 17:34:46,2023-01-15 17:34:46
VEND0188,spencer_188,spencer_188@vend.com,Spencer-Runolfsson,,977175430,00315 Ashley Valleys,Tasmania,7020,Australia,,True,2023-01-15 21:43:07,2023-01-15 21:43:07
VEND0189,streich_189,streich_189@vend.com,Streich Ltd,,300147110,574 David Locks Suite 207,New South Wales,2419,Australia,,False,2023-01-15 22:03:59,2023-01-15 22:03:59
VEND0190,bernier_190,bernier_190@vend.com,Bernier and Sons,,790158420,165 Jerry Meadows Suite 460,New South Wales,1563,Australia,,False,2023-01-15 22:59:57,2023-01-15 22:59:57
VEND0191,dare_191,dare_191@vend.com,"Dare, Casper and Bartoletti",,864398280,4970 Michelle Burgs,New South Wales,1217,Australia,,True,2023-01-15 23:03:21,2023-01-15 23:03:21
VEND0192,zboncak_192,zboncak_192@vend.com,Zboncak LLC,,846951726,1441 Bradley Place,Victoria,8073,Australia,,False,2023-01-16 03:13:59,2023-01-16 03:13:59
VEND0193,erdman_193,erdman_193@vend.com,Erdman-Durgan,,417650900,386 Randolph Throughway,Queensland,4483,Australia,,True,2023-01-16 03:14:32,2023-01-16 03:14:32
VEND0194,thiel_194,thiel_194@vend.com,Thiel Ltd,,202592289,8614 Reed Glen,New South Wales,2604,Australia,,True,2023-01-16 19:27:08,2023-01-16 19:27:08
VEND0195,heathcote_195,heathcote_195@vend.com,Heathcote LLC,,787653983,3206 Hall Divide Suite 282,South Australia,5776,Australia,,False,2023-01-16 21:45:59,2023-01-16 21:45:59
VEND0196,eichmann_196,eichmann_196@vend.com,Eichmann-Kilback,,700208500,269 Sanchez Rapids,Tasmania,7208,Australia,,True,2023-01-16 21:57:34,2023-01-16 21:57:34
VEND0197,hoppe_197,hoppe_197@vend.com,"Hoppe, Harris and Bednar",,3771126,383 Contreras Hills Suite 658,Tasmania,7338,Australia,,True,2023-01-17 07:37:03,2023-01-17 07:37:03
VEND0198,hammes_198,hammes_198@vend.com,Hammes-Beatty,,732345290,3326 Hannah Fords,New South Wales,2524,Australia,,False,2023-01-17 11:17:16,2023-01-17 11:17:16
VEND0199,jacobi_199,jacobi_199@vend.com,Jacobi and Sons,,952084362,854 Walker Dale Suite 488,Queensland,4287,Australia,,False,2023-01-17 15:12:05,2023-01-17 15:12:05
VEND0200,jast_200,jast_200@vend.com,Jast and Sons,,679934075,15315 Vaughn Park Suite 356,South Australia,5606,Australia,,True,2023-01-17 22:38:34,2023-01-17 22:38:34
VEND0201,streich_201,streich_201@vend.com,"Streich, Rolfson and Wilderman",,59589824,8149 Harris Divide,Victoria,3134,Australia,,False,2023-01-17 22:48:22,2023-01-17 22:48:22
VEND0202,zboncak_202,zboncak_202@vend.com,Zboncak Ltd,,520143479,949 Smith Parkway,Victoria,3924,Australia,,False,2023-01-18 04:38:34,2023-01-18 04:38:34
VEND0203,lemke_203,lemke_203@vend.com,Lemke and Sons,,299015720,4215 Miranda Field Suite 326,Western Australia,6237,Australia,,True,2023-01-18 05:18:13,2023-01-18 05:18:13
VEND0204,kulas_204,kulas_204@vend.com,Kulas Group,,601008538,05561 Farrell Crescent,New South Wales,1405,Australia,,False,2023-01-18 06:01:04,2023-01-18 06:01:04
VEND0205,goldner_205,goldner_205@vend.com,Goldner-Lemke,,163635895,622 Bradley Knoll Apt. 758,New South Wales,1750,Australia,,False,2023-01-18 07:25:56,2023-01-18 07:25:56
VEND0206,predovic_206,predovic_206@vend.com,Predovic Inc,,88871723,71309 Martinez Stravenue,Tasmania,7663,Australia,,False,2023-01-18 07:52:03,2023-01-18 07:52:03
VEND0207,howe_207,howe_207@vend.com,Howe Ltd,,96483689,767 Adam Mill Apt. 115,Tasmania,7533,Australia,,False,2023-01-18 11:01:24,2023-01-18 11:01:24
VEND0208,stoltenberg_208,stoltenberg_208@vend.com,Stoltenberg-Beatty,,132874641,180 Graves Shore,Queensland,9939,Australia,,True,2023-01-18 14:43:15,2023-01-18 14:43:15
VEND0209,bruen_209,bruen_209@vend.com,Bruen-Yost,,98678139,11014 Chad Lake Apt. 573,Queensland,9448,Australia,,True,2023-01-19 09:13:16,2023-01-19 09:13:16
VEND0210,reichel_210,reichel_210@vend.com,"Reichel, Bradtke and Blanda",,411452607,7898 Wanda Springs,New South Wales,2882,Australia,,True,2023-01-19 10:28:59,2023-01-19 10:28:59
VEND0211,morissette_211,morissette_211@vend.com,Morissette PLC,,67971111,789 Herring Manors,Tasmania,7007,Australia,,False,2023-01-19 16:07:22,2023-01-19 16:07:22
VEND0212,reichert_212,reichert_212@vend.com,"Reichert, Huels and Hoppe",,894980163,9486 Joel Common Suite 554,Western Australia,6618,Australia,,True,2023-01-19 22:26:47,2023-01-19 22:26:47
VEND0213,hills_213,hills_213@vend.com,Hills-Witting,,841002999,516 Brown Parks,Queensland,9854,Australia,,False,2023-01-20 02:28:41,2023-01-20 02:28:41
VEND0214,shanahan_214,shanahan_214@vend.com,Shanahan-Lehner,,865515114,2807 Parker Station Suite 080,South Australia,5080,Australia,,True,2023-01-20 08:40:18,2023-01-20 08:40:18
VEND0215,bogisich_215,bogisich_215@vend.com,Bogisich-Weimann,,690407310,194 Goodman Fall Apt. 569,Victoria,8233,Australia,,True,2023-01-20 09:32:01,2023-01-20 09:32:01
VEND0216,douglas_216,douglas_216@vend.com,"Douglas, DuBuque and McKenzie",,792708725,670 Le Meadows Suite 250,Victoria,3811,Australia,,False,2023-01-20 10:58:53,2023-01-20 10:58:53
VEND0217,daugherty_217,daugherty_217@vend.com,Daugherty-Thompson,,48994607,9379 Vanessa Run Apt. 400,New South Wales,1453,Australia,,False,2023-01-20 16:23:10,2023-01-20 16:23:10
VEND0218,goyette_218,goyette_218@vend.com,Goyette-Herzog,,202053279,00315 Ashley Valleys,Tasmania,7020,Australia,,False,2023-01-20 20:30:35,2023-01-20 20:30:35
VEND0219,keeling_219,keeling_219@vend.com,Keeling-Crist,,182642936,47035 Murray Harbors,Queensland,4720,Australia,,False,2023-01-21 07:50:09,2023-01-21 07:50:09
VEND0220,walter_220,walter_220@vend.com,"Walter, Hettinger and Kessler",,820467335,1652 James Mews,Queensland,4233,Australia,,False,2023-01-21 10:47:06,2023-01-21 10:47:06
VEND0221,kozey_221,kozey_221@vend.com,Kozey-McDermott,,994826210,821 Solis Points,Queensland,9440,Australia,,False,2023-01-21 16:10:57,2023-01-21 16:10:57
VEND0222,mcdermott_222,mcdermott_222@vend.com,"McDermott, Osinski and Morar",,137330196,06393 Nancy Parkways Suite 855,South Australia,5903,Australia,,False,2023-01-21 19:21:21,2023-01-21 19:21:21
VEND0223,kilback_223,kilback_223@vend.com,"Kilback, Nitzsche and Leffler",,810168620,5654 Peterson Land,Queensland,9157,Australia,,False,2023-01-21 23:07:52,2023-01-21 23:07:52
VEND0224,vandervort_224,vandervort_224@vend.com,Vandervort-Funk,,959910332,2807 Parker Station Suite 080,South Australia,5080,Australia,,True,2023-01-22 01:38:51,2023-01-22 01:38:51
VEND0225,hills_225,hills_225@vend.com,Hills-Boyer,,29296303,269 Sanchez Rapids,Tasmania,7208,Australia,,False,2023-01-22 04:36:03,2023-01-22 04:36:03
VEND0226,jast_226,jast_226@vend.com,Jast Ltd,,759661243,81708 Christopher Plaza,Victoria,3361,Australia,,False,2023-01-22 07:34:10,2023-01-22 07:34:10
VEND0227,grimes_227,grimes_227@vend.com,Grimes LLC,,314721966,3522 Park Wells Suite 528,Tasmania,7327,Australia,,False,2023-01-22 16:19:27,2023-01-22 16:19:27
VEND0228,gulgowski_228,gulgowski_228@vend.com,Gulgowski LLC,,31993025,384 Newman Forks Apt. 370,New South Wales,2421,Australia,,True,2023-01-22 16:51:02,2023-01-22 16:51:02
VEND0229,mohr_229,mohr_229@vend.com,Mohr-Bayer,,116513503,47144 Roberts Keys,Tasmania,7750,Australia,,False,2023-01-22 18:05:54,2023-01-22 18:05:54
VEND0230,bahringer_230,bahringer_230@vend.com,"Bahringer, Osinski and Block",,490329668,4970 Michelle Burgs,New South Wales,1217,Australia,,False,2023-01-22 18:11:52,2023-01-22 18:11:52
VEND0231,simonis_231,simonis_231@vend.com,Simonis-Prohaska,,931352252,169 Shelia Knoll Suite 753,South Australia,5980,Australia,,True,2023-01-23 01:07:38,2023-01-23 01:07:38
VEND0232,kunze_232,kunze_232@vend.com,"Kunze, Larkin and Mayert",,824890647,4511 Choi Lock,New South Wales,1232,Australia,,False,2023-01-23 03:23:56,2023-01-23 03:23:56
VEND0233,becker_233,becker_233@vend.com,"Becker, Harris and Harvey",,862542587,15315 Vaughn Park Suite 356,South Australia,5606,Australia,,True,2023-01-23 06:32:47,2023-01-23 06:32:47
VEND0234,kutch_234,kutch_234@vend.com,Kutch-Wilderman,,592072985,75533 Tamara Valleys,New South Wales,2856,Australia,,True,2023-01-23 11:34:13,2023-01-23 11:34:13
VEND0235,lehner_235,lehner_235@vend.com,"Lehner, Mosciski and King",,895972308,857 Aaron Circles Suite 398,Queensland,9455,Australia,,False,2023-01-23 21:19:27,2023-01-23 21:19:27
VEND0236,heaney_236,heaney_236@vend.com,Heaney-Marquardt,,27264554,43039 Riley Greens Suite 393,Queensland,9160,Australia,,False,2023-01-24 18:11:46,2023-01-24 18:11:46
VEND0237,mccullough_237,mccullough_237@vend.com,"McCullough, Hudson and Schuster",,110975550,210 Dean Causeway Suite 130,New South Wales,1003,Australia,,False,2023-01-24 18:50:43,2023-01-24 18:50:43
VEND0238,kilback_238,kilback_238@vend.com,Kilback LLC,,937978667,4970 Michelle Burgs,New South Wales,1217,Australia,,True,2023-01-24 19:53:12,2023-01-24 19:53:12
VEND0239,kub_239,kub_239@vend.com,Kub-Heaney,,515344020,639 Cruz Islands,Queensland,9101,Australia,,True,2023-01-25 03:39:21,2023-01-25 03:39:21
VEND0240,schumm_240,schumm_240@vend.com,"Schumm, McLaughlin and Carter",,178999463,821 Solis Points,Queensland,9440,Australia,,True,2023-01-25 05:10:44,2023-01-25 05:10:44
VEND0241,heller_241,heller_241@vend.com,Heller PLC,,794664271,663 Anna Plaza,Western Australia,6239,Australia,,False,2023-01-25 11:39:29,2023-01-25 11:39:29
VEND0242,hahn_242,hahn_242@vend.com,"Hahn, Douglas and Schowalter",,976756738,3539 Mckenzie Stream,Tasmania,7022,Australia,,False,2023-01-25 16:11:26,2023-01-25 16:11:26
VEND0243,kertzmann_243,kertzmann_243@vend.com,Kertzmann LLC,,892980175,269 Sanchez Rapids,Tasmania,7208,Australia,,True,2023-01-25 17:18:02,2023-01-25 17:18:02
VEND0244,mueller_244,mueller_244@vend.com,"Mueller, Gerhold and Mueller",,293909206,864 Reynolds Plains,South Australia,5484,Australia,,False,2023-01-25 17:37:29,2023-01-25 17:37:29
VEND0245,reinger_245,reinger_245@vend.com,"Reinger, Weissnat and Strosin",,879740649,974 Cindy Stream,South Australia,5733,Australia,,False,2023-01-25 19:20:04,2023-01-25 19:20:04
VEND0246,connelly_246,connelly_246@vend.com,Connelly PLC,,773899158,8619 Lisa Manors Apt. 871,New South Wales,2221,Australia,,True,2023-01-26 01:45:18,2023-01-26 01:45:18
VEND0247,conroy_247,conroy_247@vend.com,Conroy Ltd,,94707272,641 Steven Mall Apt. 299,New South Wales,1978,Australia,,False,2023-01-26 22:44:53,2023-01-26 22:44:53
VEND0248,willms_248,willms_248@vend.com,"Willms, Kris and Bergnaum",,338559877,58665 Nicholas Ford Suite 348,New South Wales,1257,Australia,,False,2023-01-27 02:49:00,2023-01-27 02:49:00
VEND0249,pouros_249,pouros_249@vend.com,"Pouros, Walker and Spencer",,330126107,26572 Hodge Villages Suite 512,Tasmania,7058,Australia,,False,2023-01-27 06:54:33,2023-01-27 06:54:33
VEND0250,roberts_250,roberts_250@vend.com,"Roberts, Daniel and Macejkovic",,536963490,77921 Costa Villages,Tasmania,7403,Australia,,False,2023-01-27 13:29:18,2023-01-27 13:29:18
VEND0251,heathcote_251,heathcote_251@vend.com,"Heathcote, Yost and Kertzmann",,293128558,2807 Parker Station Suite 080,South Australia,5080,Australia,,False,2023-01-28 00:38:26,2023-01-28 00:38:26
VEND0252,larkin_252,larkin_252@vend.com,Larkin Ltd,,574373318,6574 William Hill Apt. 375,Victoria,8433,Australia,,True,2023-01-28 01:12:37,2023-01-28 01:12:37
VEND0253,metz_253,metz_253@vend.com,Metz-Boehm,,365119557,034 Kimberly Mountains,Victoria,3510,Australia,,False,2023-01-28 02:31:43,2023-01-28 02:31:43
VEND0254,parker_254,parker_254@vend.com,Parker-Kunde,,467653204,45654 Hess Rest,New South Wales,2514,Australia,,True,2023-01-28 04:26:35,2023-01-28 04:26:35
VEND0255,yost_255,yost_255@vend.com,Yost-Rogahn,,735346244,3786 Hale Corners,New South Wales,2273,Australia,,False,2023-01-28 06:48:27,2023-01-28 06:48:27
VEND0256,crooks_256,crooks_256@vend.com,Crooks and Sons,,174429902,17666 David Valleys,New South Wales,2585,Australia,,False,2023-01-28 11:01:21,2023-01-28 11:01:21
VEND0257,nienow_257,nienow_257@vend.com,"Nienow, Barrows and Romaguera",,260813815,8957 Russell Key,South Australia,5747,Australia,,True,2023-01-28 20:16:13,2023-01-28 20:16:13
VEND0258,gleason_258,gleason_258@vend.com,Gleason-Macejkovic,,310822240,21326 Taylor Squares Suite 708,Tasmania,7040,Australia,,False,2023-01-28 23:05:12,2023-01-28 23:05:12
VEND0259,altenwerth_259,altenwerth_259@vend.com,Altenwerth-Kilback,,10865167,35822 Clayton Street Apt. 679,New South Wales,2634,Australia,,False,2023-01-29 00:34:46,2023-01-29 00:34:46
VEND0260,kuphal_260,kuphal_260@vend.com,Kuphal-Toy,,129128280,030 Seth Divide Suite 355,Queensland,4131,Australia,,False,2023-01-29 00:59:23,2023-01-29 00:59:23
VEND0261,schulist_261,schulist_261@vend.com,Schulist Ltd,,857416065,244 Abbott Parkway,Victoria,3470,Australia,,False,2023-01-29 01:50:48,2023-01-29 01:50:48
VEND0262,welch_262,welch_262@vend.com,Welch Inc,,635130604,43235 Mckenzie Views Apt. 837,New South Wales,2077,Australia,,False,2023-01-29 03:21:36,2023-01-29 03:21:36
VEND0263,kassulke_263,kassulke_263@vend.com,Kassulke PLC,,597810116,2481 Mills Lock,Tasmania,7060,Australia,,False,2023-01-29 07:43:40,2023-01-29 07:43:40
VEND0264,rau_264,rau_264@vend.com,Rau-Grant,,312531485,696 Matthew Ford Suite 157,New South Wales,2970,Australia,,True,2023-01-29 13:15:38,2023-01-29 13:15:38
VEND0265,macejkovic_265,macejkovic_265@vend.com,Macejkovic-Lesch,,867759656,47144 Roberts Keys,Tasmania,7750,Australia,,False,2023-01-29 18:11:30,2023-01-29 18:11:30
VEND0266,graham_266,graham_266@vend.com,"Graham, Hegmann and Hammes",,897282719,6139 Mark Rapid Apt. 651,Victoria,8015,Australia,,False,2023-01-30 07:57:17,2023-01-30 07:57:17
VEND0267,waters_267,waters_267@vend.com,Waters-Cruickshank,,165543009,199 Patterson Fords Apt. 132,Queensland,4112,Australia,,False,2023-01-30 08:49:47,2023-01-30 08:49:47
VEND0268,lesch_268,lesch_268@vend.com,Lesch Ltd,,831162184,715 Courtney Pike Suite 932,Western Australia,6248,Australia,,True,2023-01-30 13:08:37,2023-01-30 13:08:37
VEND0269,kozey_269,kozey_269@vend.com,Kozey-Boehm,,797065840,77663 Colleen Freeway,Western Australia,6041,Australia,,False,2023-01-30 16:18:56,2023-01-30 16:18:56
VEND0270,bode_270,bode_270@vend.com,Bode-Rempel,,613922823,101 Carla Loop,Western Australia,6136,Australia,,False,2023-01-30 20:10:40,2023-01-30 20:10:40
VEND0271,romaguera_271,romaguera_271@vend.com,"Romaguera, Cruickshank and Greenholt",,121468847,2481 Mills Lock,Tasmania,7060,Australia,,False,2023-01-31 03:18:30,2023-01-31 03:18:30
VEND0272,howe_272,howe_272@vend.com,Howe PLC,,813824604,576 House Crossroad,New South Wales,1796,Australia,,False,2023-01-31 04:11:04,2023-01-31 04:11:04
VEND0273,volkman_273,volkman_273@vend.com,Volkman PLC,,281106840,13108 Jennifer Passage,Tasmania,7556,Australia,,False,2023-01-31 08:24:05,2023-01-31 08:24:05
VEND0274,quitzon_274,quitzon_274@vend.com,"Quitzon, Green and Bashirian",,817728370,686 Linda Rest,South Australia,5662,Australia,,False,2023-01-31 09:26:13,2023-01-31 09:26:13
VEND0275,shields_275,shields_275@vend.com,Shields-Wunsch,,388901471,543 Ware Path Apt. 593,Queensland,4686,Australia,,True,2023-01-31 12:54:06,2023-01-31 12:54:06
VEND0276,williamson_276,williamson_276@vend.com,Williamson LLC,,447006766,2924 Bobby Trafficway,Victoria,3872,Australia,,False,2023-01-31 20:35:29,2023-01-31 20:35:29
VEND0277,fadel_277,fadel_277@vend.com,Fadel Inc,,354041412,587 Bradley Inlet Suite 281,Queensland,4223,Australia,,False,2023-02-01 09:30:08,2023-02-01 09:30:08
VEND0278,pacocha_278,pacocha_278@vend.com,Pacocha-Bauch,,931053976,542 Howe Mission Apt. 092,Queensland,4668,Australia,,False,2023-02-01 11:22:46,2023-02-01 11:22:46
VEND0279,fisher_279,fisher_279@vend.com,Fisher-Schowalter,,891715518,1831 Faith View Suite 653,New South Wales,1632,Australia,,False,2023-02-01 15:04:28,2023-02-01 15:04:28
VEND0280,johns_280,johns_280@vend.com,Johns Inc,,71789838,1250 Christopher Prairie Suite 016,Queensland,4569,Australia,,False,2023-02-01 18:26:51,2023-02-01 18:26:51
VEND0281,nolan_281,nolan_281@vend.com,Nolan-Williamson,,833256558,0495 Baker Manors,Victoria,3425,Australia,,False,2023-02-01 18:37:57,2023-02-01 18:37:57
VEND0282,maggio_282,maggio_282@vend.com,Maggio-Fahey,,673654161,5517 Stacy Land,New South Wales,2063,Australia,,False,2023-02-01 19:52:37,2023-02-01 19:52:37
VEND0283,denesik_283,denesik_283@vend.com,Denesik and Sons,,399784335,198 Candace Plaza,Queensland,4412,Australia,,False,2023-02-01 20:21:02,2023-02-01 20:21:02
VEND0284,jast_284,jast_284@vend.com,Jast-McDermott,,142622592,982 Melissa Lock,Victoria,3801,Australia,,True,2023-02-01 22:42:26,2023-02-01 22:42:26
VEND0285,price_285,price_285@vend.com,Price Inc,,249783481,57256 Raymond Ports,Tasmania,7932,Australia,,False,2023-02-01 23:21:12,2023-02-01 23:21:12
VEND0286,schoen_286,schoen_286@vend.com,Schoen Ltd,,524843825,5572 Kelly Plains Apt. 952,Queensland,4981,Australia,,True,2023-02-02 00:26:15,2023-02-02 00:26:15
VEND0287,fahey_287,fahey_287@vend.com,Fahey Inc,,881852140,8925 Nicholas Points,New South Wales,2531,Australia,,False,2023-02-02 01:16:12,2023-02-02 01:16:12
VEND0288,stiedemann_288,stiedemann_288@vend.com,Stiedemann Inc,,898249167,3256 Brooks Field,South Australia,5554,Australia,,False,2023-02-02 01:49:33,2023-02-02 01:49:33
VEND0289,mohr_289,mohr_289@vend.com,Mohr Inc,,626928491,55363 Aaron Circle Suite 450,Tasmania,7041,Australia,,True,2023-02-02 02:04:44,2023-02-02 02:04:44
VEND0290,wisozk_290,wisozk_290@vend.com,Wisozk and Sons,,469389047,76752 David Lodge Apt. 064,Queensland,4816,Australia,,False,2023-02-02 03:34:36,2023-02-02 03:34:36
VEND0291,rolfson_291,rolfson_291@vend.com,Rolfson-Kunde,,538396923,994 Livingston Extensions Suite 918,Queensland,4857,Australia,,False,2023-02-02 04:34:58,2023-02-02 04:34:58
VEND0292,wuckert_292,wuckert_292@vend.com,Wuckert-Goldner,,388510116,1833 Jeanette Stravenue,Queensland,9714,Australia,,False,2023-02-02 05:03:45,2023-02-02 05:03:45
VEND0293,pouros_293,pouros_293@vend.com,Pouros-Conroy,,829271795,55363 Aaron Circle Suite 450,Tasmania,7041,Australia,,False,2023-02-02 07:12:24,2023-02-02 07:12:24
VEND0294,kuhn_294,kuhn_294@vend.com,Kuhn LLC,,818239968,82073 Jessica Camp,New South Wales,1567,Australia,,True,2023-02-02 09:30:23,2023-02-02 09:30:23
VEND0295,skiles_295,skiles_295@vend.com,Skiles LLC,,902571056,75533 Tamara Valleys,New South Wales,2856,Australia,,False,2023-02-02 17:03:06,2023-02-02 17:03:06
VEND0296,boyer_296,boyer_296@vend.com,Boyer PLC,,118134380,70858 Jasmine Meadows Apt. 135,South Australia,5801,Australia,,False,2023-02-03 01:47:48,2023-02-03 01:47:48
VEND0297,reilly_297,reilly_297@vend.com,Reilly and Sons,,8602445,1911 Fisher Brook,Tasmania,7117,Australia,,False,2023-02-03 06:12:49,2023-02-03 06:12:49
VEND0298,ratke_298,ratke_298@vend.com,Ratke and Sons,,348993063,566 Megan Well,Victoria,3615,Australia,,False,2023-02-03 20:27:55,2023-02-03 20:27:55
VEND0299,emmerich_299,emmerich_299@vend.com,Emmerich-Rau,,161831637,7020 Doyle Stream Apt. 951,Victoria,3643,Australia,,False,2023-02-03 22:34:41,2023-02-03 22:34:41
VEND0300,marvin_300,marvin_300@vend.com,Marvin-Lind,,718226968,659 Nicole Cove Suite 560,Tasmania,7358,Australia,,False,2023-02-04 05:14:00,2023-02-04 05:14:00
VEND0301,wiza_301,wiza_301@vend.com,Wiza LLC,,754871064,748 Bryan Fields Suite 935,New South Wales,2501,Australia,,True,2023-02-04 05:34:36,2023-02-04 05:34:36
VEND0302,torp_302,torp_302@vend.com,Torp-Lemke,,734391390,01479 Murray Circle,Tasmania,7747,Australia,,False,2023-02-04 09:09:33,2023-02-04 09:09:33
VEND0303,effertz_303,effertz_303@vend.com,"Effertz, Welch and Schowalter",,127649434,574 David Locks Suite 207,New South Wales,2419,Australia,,True,2023-02-04 14:10:13,2023-02-04 14:10:13
VEND0304,jerde_304,jerde_304@vend.com,Jerde-Hermann,,628260579,23220 Eaton Harbors,Victoria,3330,Australia,,True,2023-02-04 17:00:35,2023-02-04 17:00:35
VEND0305,kassulke_305,kassulke_305@vend.com,Kassulke Inc,,371366145,7118 Jessica Unions Apt. 789,Tasmania,7035,Australia,,False,2023-02-04 20:17:43,2023-02-04 20:17:43
VEND0306,ankunding_306,ankunding_306@vend.com,Ankunding-Carroll,,561108825,897 Daugherty Mission,Western Australia,6839,Australia,,True,2023-02-04 21:39:09,2023-02-04 21:39:09
VEND0307,waelchi_307,waelchi_307@vend.com,Waelchi-Wolf,,588755577,54822 Hill Forks,New South Wales,2424,Australia,,True,2023-02-05 00:14:19,2023-02-05 00:14:19
VEND0308,pagac_308,pagac_308@vend.com,Pagac LLC,,512569411,8851 Reese Neck,New South Wales,2810,Australia,,True,2023-02-05 18:04:33,2023-02-05 18:04:33
VEND0309,cormier_309,cormier_309@vend.com,Cormier LLC,,342086639,03512 Jackson Ports,Queensland,9512,Australia,,False,2023-02-05 19:23:41,2023-02-05 19:23:41
VEND0310,larkin_310,larkin_310@vend.com,"Larkin, Stracke and Greenfelder",,114532501,767 Adam Mill Apt. 115,Tasmania,7533,Australia,,False,2023-02-05 21:06:18,2023-02-05 21:06:18
VEND0311,ebert_311,ebert_311@vend.com,Ebert-Daugherty,,645331016,899 Michele View Suite 960,Queensland,9149,Australia,,False,2023-02-06 06:44:25,2023-02-06 06:44:25
VEND0312,rohan_312,rohan_312@vend.com,"Rohan, White and Aufderhar",,160328600,8969 Fuentes Station Apt. 291,Tasmania,7060,Australia,,False,2023-02-06 08:44:25,2023-02-06 08:44:25
VEND0313,schmeler_313,schmeler_313@vend.com,Schmeler-Howe,,955669388,79414 Clark Lakes Suite 966,Victoria,8088,Australia,,True,2023-02-06 20:56:52,2023-02-06 20:56:52
VEND0314,osinski_314,osinski_314@vend.com,Osinski Inc,,78554961,31472 Cody Place Suite 740,New South Wales,2895,Australia,,False,2023-02-07 06:07:22,2023-02-07 06:07:22
VEND0315,bernhard_315,bernhard_315@vend.com,"Bernhard, Grant and Langworth",,456008760,6114 Adams Harbor Suite 096,Western Australia,6346,Australia,,False,2023-02-07 08:54:09,2023-02-07 08:54:09
VEND0316,hagenes_316,hagenes_316@vend.com,"Hagenes, Kohler and Hoppe",,72969078,9016 Jordan Bypass Apt. 516,New South Wales,2820,Australia,,False,2023-02-07 11:15:03,2023-02-07 11:15:03
VEND0317,klocko_317,klocko_317@vend.com,"Klocko, Runolfsdottir and Breitenberg",,313716651,44951 Williams Brooks,Queensland,9572,Australia,,True,2023-02-07 11:30:49,2023-02-07 11:30:49
VEND0318,larson_318,larson_318@vend.com,"Larson, Quitzon and Spencer",,318482131,9554 Flores Drive,Victoria,3010,Australia,,False,2023-02-07 13:39:36,2023-02-07 13:39:36
VEND0319,weber_319,weber_319@vend.com,"Weber, Thiel and Hammes",,263498048,384 Jonathan Hills,Victoria,8830,Australia,,False,2023-02-07 13:46:29,2023-02-07 13:46:29
VEND0320,christiansen_320,christiansen_320@vend.com,Christiansen-Gusikowski,,648173430,0925 Lang Extensions,Victoria,8569,Australia,,True,2023-02-07 13:55:13,2023-02-07 13:55:13
VEND0321,morissette_321,morissette_321@vend.com,Morissette-Schaefer,,713119940,6278 Stephanie Unions,New South Wales,2039,Australia,,True,2023-02-07 22:13:50,2023-02-07 22:13:50
VEND0322,watsica_322,watsica_322@vend.com,Watsica LLC,,482822430,624 Hale Springs Apt. 572,Queensland,4659,Australia,,True,2023-02-08 03:22:52,2023-02-08 03:22:52
VEND0323,jakubowski_323,jakubowski_323@vend.com,Jakubowski Group,,758680062,611 Michael Rue,New South Wales,1830,Australia,,True,2023-02-08 04:57:03,2023-02-08 04:57:03
VEND0324,herzog_324,herzog_324@vend.com,Herzog Ltd,,382886333,6114 Adams Harbor Suite 096,Western Australia,6346,Australia,,False,2023-02-08 06:55:33,2023-02-08 06:55:33
VEND0325,hackett_325,hackett_325@vend.com,Hackett Group,,577161160,586 Thomas Cliffs,Queensland,4154,Australia,,True,2023-02-08 11:13:49,2023-02-08 11:13:49
VEND0326,reichel_326,reichel_326@vend.com,Reichel Inc,,97840281,707 Anthony Causeway,Western Australia,6765,Australia,,False,2023-02-08 12:01:34,2023-02-08 12:01:34
VEND0327,abernathy_327,abernathy_327@vend.com,Abernathy and Sons,,269323674,222 Freeman Islands,Queensland,9897,Australia,,False,2023-02-08 16:34:00,2023-02-08 16:34:00
VEND0328,stark_328,stark_328@vend.com,Stark-Batz,,581794652,7600 Stephen Course Suite 031,Tasmania,7558,Australia,,False,2023-02-09 02:04:05,2023-02-09 02:04:05
VEND0329,konopelski_329,konopelski_329@vend.com,"Konopelski, Schneider and Hartmann",,350514020,3337 Lisa Divide,Victoria,3710,Australia,,False,2023-02-09 06:49:05,2023-02-09 06:49:05
VEND0330,ledner_330,ledner_330@vend.com,"Ledner, Hartmann and Feest",,258847705,426 Mark Ports,Queensland,4616,Australia,,False,2023-02-09 09:19:00,2023-02-09 09:19:00
VEND0331,champlin_331,champlin_331@vend.com,Champlin-Casper,,338765909,0371 Aimee Neck Suite 856,South Australia,5827,Australia,,True,2023-02-09 11:25:04,2023-02-09 11:25:04
VEND0332,goyette_332,goyette_332@vend.com,Goyette-Gerhold,,26046574,6033 Young Track Suite 804,Western Australia,6024,Australia,,False,2023-02-09 13:46:42,2023-02-09 13:46:42
VEND0333,kihn_333,kihn_333@vend.com,"Kihn, Abernathy and Douglas",,282048490,47035 Murray Harbors,Queensland,4720,Australia,,True,2023-02-09 15:37:26,2023-02-09 15:37:26
VEND0334,stanton_334,stanton_334@vend.com,"Stanton, Jakubowski and Baumbach",,903938030,03030 White Lakes,Western Australia,6050,Australia,,True,2023-02-09 16:47:46,2023-02-09 16:47:46
VEND0335,terry_335,terry_335@vend.com,Terry-Huel,,732997086,477 Wheeler Burg,Victoria,3102,Australia,,True,2023-02-09 18:01:35,2023-02-09 18:01:35
VEND0336,cummerata_336,cummerata_336@vend.com,Cummerata-Hilpert,,43708100,6744 Jimmy Extensions,Queensland,4537,Australia,,False,2023-02-09 19:54:44,2023-02-09 19:54:44
VEND0337,turner_337,turner_337@vend.com,Turner and Sons,,754887089,7309 Sophia Causeway Suite 702,Western Australia,6379,Australia,,False,2023-02-09 20:31:31,2023-02-09 20:31:31
VEND0338,bahringer_338,bahringer_338@vend.com,"Bahringer, Schoen and Corkery",,888193422,6458 Roberson Alley,Victoria,3388,Australia,,False,2023-02-10 05:51:52,2023-02-10 05:51:52
VEND0339,hettinger_339,hettinger_339@vend.com,"Hettinger, McCullough and Fay",,452671396,35737 Kirby Fall Suite 409,South Australia,5486,Australia,,False,2023-02-10 06:20:36,2023-02-10 06:20:36
VEND0340,hayes_340,hayes_340@vend.com,"Hayes, Marquardt and Dibbert",,323467523,29606 Martinez Views Suite 653,South Australia,5461,Australia,,True,2023-02-10 08:34:07,2023-02-10 08:34:07
VEND0341,zulauf_341,zulauf_341@vend.com,Zulauf LLC,,928491302,302 Christina Islands,New South Wales,2171,Australia,,True,2023-02-10 10:06:23,2023-02-10 10:06:23
VEND0342,dibbert_342,dibbert_342@vend.com,Dibbert-Green,,521454815,502 Rice Plaza Apt. 979,New South Wales,2466,Australia,,False,2023-02-10 13:44:18,2023-02-10 13:44:18
VEND0343,brown_343,brown_343@vend.com,Brown Inc,,55178270,721 Jacqueline Brooks,New South Wales,1272,Australia,,True,2023-02-10 15:13:39,2023-02-10 15:13:39
VEND0344,fadel_344,fadel_344@vend.com,Fadel-Hilpert,,552879910,672 Randall Burg Suite 551,Victoria,3220,Australia,,True,2023-02-10 17:30:43,2023-02-10 17:30:43
VEND0345,turner_345,turner_345@vend.com,"Turner, Ziemann and Lehner",,393492413,9333 Valentine Point,New South Wales,1710,Australia,,False,2023-02-10 18:55:01,2023-02-10 18:55:01
VEND0346,fritsch_346,fritsch_346@vend.com,Fritsch LLC,,671518597,4720 Anna Ways,New South Wales,2668,Australia,,False,2023-02-10 19:15:06,2023-02-10 19:15:06
VEND0347,labadie_347,labadie_347@vend.com,"Labadie, Treutel and Bode",,380913800,32301 Albert River Suite 364,Queensland,4970,Australia,,False,2023-02-10 23:50:33,2023-02-10 23:50:33
VEND0348,hodkiewicz_348,hodkiewicz_348@vend.com,"Hodkiewicz, Prohaska and Paucek",,127767090,982 Melissa Lock,Victoria,3801,Australia,,False,2023-02-11 08:21:07,2023-02-11 08:21:07
VEND0349,swift_349,swift_349@vend.com,Swift PLC,,501673238,40624 Rebecca Spurs,New South Wales,2042,Australia,,True,2023-02-11 09:30:50,2023-02-11 09:30:50
VEND0350,little_350,little_350@vend.com,Little-Gleichner,,98980570,69252 Oconnor Alley Apt. 153,New South Wales,2576,Australia,,True,2023-02-11 10:22:01,2023-02-11 10:22:01
VEND0351,stamm_351,stamm_351@vend.com,Stamm-Witting,,204639183,707 Anthony Causeway,Western Australia,6765,Australia,,False,2023-02-11 22:37:06,2023-02-11 22:37:06
VEND0352,zboncak_352,zboncak_352@vend.com,"Zboncak, Rowe and Murazik",,91568498,864 Reynolds Plains,South Australia,5484,Australia,,True,2023-02-12 01:33:57,2023-02-12 01:33:57
VEND0353,baumbach_353,baumbach_353@vend.com,Baumbach Ltd,,963695236,17666 David Valleys,New South Wales,2585,Australia,,False,2023-02-12 05:14:49,2023-02-12 05:14:49
VEND0354,lowe_354,lowe_354@vend.com,"Lowe, Dietrich and Erdman",,696857872,67210 Lori Creek,South Australia,5092,Australia,,False,2023-02-13 00:47:01,2023-02-13 00:47:01
VEND0355,hermiston_355,hermiston_355@vend.com,"Hermiston, Russel and Price",,561732480,12444 Jacob Pines,Queensland,4555,Australia,,False,2023-02-13 02:10:26,2023-02-13 02:10:26
VEND0356,auer_356,auer_356@vend.com,Auer LLC,,589671582,125 Kristen Dale,New South Wales,2442,Australia,,False,2023-02-13 02:22:33,2023-02-13 02:22:33
VEND0357,fritsch_357,fritsch_357@vend.com,Fritsch and Sons,,368326621,9579 Porter Tunnel,Victoria,3873,Australia,,False,2023-02-13 03:02:53,2023-02-13 03:02:53
VEND0358,wilkinson_358,wilkinson_358@vend.com,Wilkinson PLC,,590521269,70761 Fitzpatrick Brooks Suite 631,Queensland,4559,Australia,,True,2023-02-13 08:24:56,2023-02-13 08:24:56
VEND0359,jakubowski_359,jakubowski_359@vend.com,Jakubowski Inc,,975342931,28777 Stewart Plains Apt. 495,New South Wales,1560,Australia,,True,2023-02-13 11:31:19,2023-02-13 11:31:19
VEND0360,boyer_360,boyer_360@vend.com,Boyer-Reichert,,758517677,043 Hanson Turnpike,New South Wales,2563,Australia,,False,2023-02-13 11:31:34,2023-02-13 11:31:34
VEND0361,boyer_361,boyer_361@vend.com,Boyer-Haley,,579726528,9734 Beard Fields Suite 885,Tasmania,7412,Australia,,True,2023-02-13 11:39:55,2023-02-13 11:39:55
VEND0362,dietrich_362,dietrich_362@vend.com,Dietrich-Fadel,,847570577,4725 Hurst Curve Apt. 634,Western Australia,6366,Australia,,False,2023-02-13 12:04:28,2023-02-13 12:04:28
VEND0363,haley_363,haley_363@vend.com,"Haley, Jewess and Bechtelar",,451418073,927 Cummings Manor Suite 318,Victoria,3129,Australia,,False,2023-02-13 14:25:46,2023-02-13 14:25:46
VEND0364,mcglynn_364,mcglynn_364@vend.com,McGlynn-Jaskolski,,349151405,725 Jo Trace Apt. 102,New South Wales,1206,Australia,,False,2023-02-13 14:51:00,2023-02-13 14:51:00
VEND0365,turcotte_365,turcotte_365@vend.com,"Turcotte, McKenzie and Koss",,902936394,9554 Flores Drive,Victoria,3010,Australia,,False,2023-02-13 18:05:28,2023-02-13 18:05:28
VEND0366,cormier_366,cormier_366@vend.com,"Cormier, Stracke and Thiel",,403817546,529 Joshua Knoll Apt. 511,New South Wales,2936,Australia,,True,2023-02-13 23:41:08,2023-02-13 23:41:08
VEND0367,baumbach_367,baumbach_367@vend.com,"Baumbach, Feeney and Morar",,529083834,372 Jeffrey Course,Queensland,9165,Australia,,False,2023-02-14 05:20:50,2023-02-14 05:20:50
VEND0368,turcotte_368,turcotte_368@vend.com,Turcotte-Halvorson,,368897795,135 Joseph Mountains,Queensland,9871,Australia,,False,2023-02-14 05:33:09,2023-02-14 05:33:09
VEND0369,hyatt_369,hyatt_369@vend.com,Hyatt-Blick,,21259183,524 Wu Spurs Suite 894,South Australia,5651,Australia,,False,2023-02-14 06:23:21,2023-02-14 06:23:21
VEND0370,bernier_370,bernier_370@vend.com,"Bernier, Volkman and Hoeger",,448584969,03512 Jackson Ports,Queensland,9512,Australia,,True,2023-02-14 21:10:25,2023-02-14 21:10:25
VEND0371,gottlieb_371,gottlieb_371@vend.com,"Gottlieb, Considine and Schultz",,591270174,67210 Lori Creek,South Australia,5092,Australia,,True,2023-02-14 22:34:13,2023-02-14 22:34:13
VEND0372,frami_372,frami_372@vend.com,Frami Group,,85306462,145 Jeffrey Key Suite 668,Victoria,8850,Australia,,True,2023-02-14 23:48:36,2023-02-14 23:48:36
VEND0373,lebsack_373,lebsack_373@vend.com,Lebsack and Sons,,187576956,7309 Sophia Causeway Suite 702,Western Australia,6379,Australia,,False,2023-02-15 01:31:18,2023-02-15 01:31:18
VEND0374,haley_374,haley_374@vend.com,"Haley, Batz and Auer",,830105976,26678 Lisa Locks Apt. 904,New South Wales,2736,Australia,,False,2023-02-15 03:39:14,2023-02-15 03:39:14
VEND0375,beier_375,beier_375@vend.com,Beier-Hyatt,,525594182,4138 David Fall,Western Australia,6858,Australia,,True,2023-02-15 04:42:25,2023-02-15 04:42:25
VEND0376,halvorson_376,halvorson_376@vend.com,Halvorson Group,,697798177,9886 Anita Drive,New South Wales,2514,Australia,,False,2023-02-15 05:03:24,2023-02-15 05:03:24
VEND0377,johns_377,johns_377@vend.com,Johns-Hoeger,,996340207,83690 Nicholas Ports Apt. 846,Victoria,8060,Australia,,False,2023-02-15 10:29:10,2023-02-15 10:29:10
VEND0378,schroeder_378,schroeder_378@vend.com,Schroeder Group,,615922685,7838 Jason Squares,New South Wales,2701,Australia,,False,2023-02-15 11:40:27,2023-02-15 11:40:27
VEND0379,weimann_379,weimann_379@vend.com,"Weimann, Kuhic and Beahan",,645208763,319 Wendy Fort Suite 179,Tasmania,7132,Australia,,False,2023-02-15 17:57:48,2023-02-15 17:57:48
VEND0380,kozey_380,kozey_380@vend.com,Kozey-Kuhlman,,44315915,1943 Dennis Inlet Suite 145,South Australia,5526,Australia,,False,2023-02-15 21:51:09,2023-02-15 21:51:09
VEND0381,kris_381,kris_381@vend.com,Kris-Padberg,,142177680,3522 Park Wells Suite 528,Tasmania,7327,Australia,,False,2023-02-15 22:56:26,2023-02-15 22:56:26
VEND0382,dibbert_382,dibbert_382@vend.com,Dibbert and Sons,,49388371,74835 Garner Point,Queensland,9319,Australia,,False,2023-02-16 01:37:40,2023-02-16 01:37:40
VEND0383,collier_383,collier_383@vend.com,Collier LLC,,837241599,79019 Taylor Cliffs,South Australia,5238,Australia,,True,2023-02-16 04:35:42,2023-02-16 04:35:42
VEND0384,bednar_384,bednar_384@vend.com,Bednar Inc,,723917628,841 Cheryl Centers Suite 115,Queensland,4425,Australia,,False,2023-02-16 07:53:08,2023-02-16 07:53:08
VEND0385,durgan_385,durgan_385@vend.com,Durgan-Auer,,423334076,9486 Joel Common Suite 554,Western Australia,6618,Australia,,False,2023-02-16 10:04:46,2023-02-16 10:04:46
VEND0386,murray_386,murray_386@vend.com,Murray-Smitham,,443445305,03512 Jackson Ports,Queensland,9512,Australia,,False,2023-02-16 10:16:35,2023-02-16 10:16:35
VEND0387,kling_387,kling_387@vend.com,"Kling, Howe and Schneider",,195877055,516 Brown Parks,Queensland,9854,Australia,,True,2023-02-16 11:07:37,2023-02-16 11:07:37
VEND0388,larson_388,larson_388@vend.com,Larson-Moen,,104404056,062 Carl Dam,New South Wales,2910,Australia,,True,2023-02-16 12:49:54,2023-02-16 12:49:54
VEND0389,cruickshank_389,cruickshank_389@vend.com,Cruickshank-Mills,,490815480,376 Brown Courts,New South Wales,2190,Australia,,False,2023-02-16 16:48:05,2023-02-16 16:48:05
VEND0390,berge_390,berge_390@vend.com,"Berge, Kautzer and Harris",,850734909,767 Adam Mill Apt. 115,Tasmania,7533,Australia,,True,2023-02-16 20:52:04,2023-02-16 20:52:04
VEND0391,o_391,o_391@vend.com,O'Hara-Wilderman,,345220752,23656 Harris Gardens Suite 698,Queensland,9906,Australia,,True,2023-02-17 01:48:16,2023-02-17 01:48:16
VEND0392,hyatt_392,hyatt_392@vend.com,"Hyatt, Russel and Gleichner",,599031376,85344 Smith Gateway Apt. 280,Tasmania,7434,Australia,,False,2023-02-17 01:50:09,2023-02-17 01:50:09
VEND0393,bins_393,bins_393@vend.com,"Bins, Balistreri and Beatty",,875590298,8614 Reed Glen,New South Wales,2604,Australia,,True,2023-02-17 11:15:16,2023-02-17 11:15:16
VEND0394,jewess_394,jewess_394@vend.com,Jewess LLC,,941175228,537 Rice Square Suite 040,South Australia,5150,Australia,,False,2023-02-17 23:06:44,2023-02-17 23:06:44
VEND0395,hartmann_395,hartmann_395@vend.com,"Hartmann, Rowe and Hermann",,339645074,155 Gregory Mount Suite 791,New South Wales,1649,Australia,,False,2023-02-18 00:49:19,2023-02-18 00:49:19
VEND0396,buckridge_396,buckridge_396@vend.com,Buckridge PLC,,38024019,180 Graves Shore,Queensland,9939,Australia,,False,2023-02-18 05:48:47,2023-02-18 05:48:47
VEND0397,langworth_397,langworth_397@vend.com,Langworth LLC,,147265057,0537 Margaret Common Suite 526,Western Australia,6834,Australia,,False,2023-02-18 06:11:31,2023-02-18 06:11:31
VEND0398,metz_398,metz_398@vend.com,"Metz, Russel and Metz",,739865793,524 Wu Spurs Suite 894,South Australia,5651,Australia,,True,2023-02-18 06:21:47,2023-02-18 06:21:47
VEND0399,schoen_399,schoen_399@vend.com,"Schoen, Kuphal and Nitzsche",,470814557,8030 Beck Motorway,Victoria,8761,Australia,,False,2023-02-18 08:51:58,2023-02-18 08:51:58
VEND0400,erdman_400,erdman_400@vend.com,Erdman-Schaden,,186189652,408 Bradley Rest,Queensland,4433,Australia,,True,2023-02-18 10:13:26,2023-02-18 10:13:26
VEND0401,reichert_401,reichert_401@vend.com,Reichert-Weissnat,,883543039,586 Thomas Cliffs,Queensland,4154,Australia,,False,2023-02-18 10:26:13,2023-02-18 10:26:13
VEND0402,mcdermott_402,mcdermott_402@vend.com,McDermott-Rice,,826487417,4293 Ramirez Squares,Western Australia,6668,Australia,,False,2023-02-18 10:35:44,2023-02-18 10:35:44
VEND0403,streich_403,streich_403@vend.com,"Streich, Dietrich and Barton",,891242532,519 Jerry Views,New South Wales,1521,Australia,,True,2023-02-19 00:58:34,2023-02-19 00:58:34
VEND0404,gerlach_404,gerlach_404@vend.com,Gerlach Inc,,982560413,43235 Mckenzie Views Apt. 837,New South Wales,2077,Australia,,False,2023-02-19 01:37:28,2023-02-19 01:37:28
VEND0405,dooley_405,dooley_405@vend.com,Dooley Inc,,382885912,27718 Mason Bypass,South Australia,5051,Australia,,False,2023-02-19 12:58:09,2023-02-19 12:58:09
VEND0406,thompson_406,thompson_406@vend.com,Thompson-Gleason,,612008285,444 Robert Mews,Western Australia,6114,Australia,,False,2023-02-19 16:58:36,2023-02-19 16:58:36
VEND0407,reichert_407,reichert_407@vend.com,"Reichert, Shanahan and Hayes",,370572092,597 Jenny Ford Apt. 543,New South Wales,2986,Australia,,False,2023-02-19 19:58:20,2023-02-19 19:58:20
VEND0408,kutch_408,kutch_408@vend.com,"Kutch, Steuber and Gerhold",,456907160,285 George Lake,South Australia,5010,Australia,,False,2023-02-20 02:10:45,2023-02-20 02:10:45
VEND0409,harris_409,harris_409@vend.com,Harris Group,,328428560,7535 Amanda Manors Suite 293,New South Wales,1960,Australia,,False,2023-02-20 03:41:46,2023-02-20 03:41:46
VEND0410,schuppe_410,schuppe_410@vend.com,"Schuppe, Nolan and Hoeger",,255475285,6970 Blake Trail,Victoria,3760,Australia,,False,2023-02-20 04:33:47,2023-02-20 04:33:47
VEND0411,bashirian_411,bashirian_411@vend.com,Bashirian Group,,539526809,250 Benjamin Hill Apt. 026,Western Australia,6617,Australia,,False,2023-02-20 10:51:36,2023-02-20 10:51:36
VEND0412,towne_412,towne_412@vend.com,"Towne, Greenholt and Koepp",,417320836,7535 Amanda Manors Suite 293,New South Wales,1960,Australia,,False,2023-02-20 14:21:49,2023-02-20 14:21:49
VEND0413,haag_413,haag_413@vend.com,Haag-Blanda,,14571045,542 Howe Mission Apt. 092,Queensland,4668,Australia,,False,2023-02-21 07:50:01,2023-02-21 07:50:01
VEND0414,abbott_414,abbott_414@vend.com,Abbott-Rogahn,,774952120,393 Carroll Route Suite 197,New South Wales,1771,Australia,,True,2023-02-21 09:40:14,2023-02-21 09:40:14
VEND0415,lind_415,lind_415@vend.com,Lind-Buckridge,,335206132,034 Kimberly Mountains,Victoria,3510,Australia,,False,2023-02-21 22:26:08,2023-02-21 22:26:08
VEND0416,altenwerth_416,altenwerth_416@vend.com,"Altenwerth, Cartwright and Koss",,902186532,1652 James Mews,Queensland,4233,Australia,,True,2023-02-21 23:53:48,2023-02-21 23:53:48
VEND0417,daugherty_417,daugherty_417@vend.com,"Daugherty, Pouros and Beahan",,67575568,08056 Alvarado Club Suite 699,South Australia,5086,Australia,,True,2023-02-22 03:16:25,2023-02-22 03:16:25
VEND0418,langosh_418,langosh_418@vend.com,"Langosh, Wintheiser and Hyatt",,652751678,5783 Evan Roads Apt. 465,Queensland,9632,Australia,,False,2023-02-22 05:39:19,2023-02-22 05:39:19
VEND0419,beier_419,beier_419@vend.com,Beier LLC,,736585751,0356 Sarah Light,Victoria,3021,Australia,,True,2023-02-22 06:40:45,2023-02-22 06:40:45
VEND0420,brown_420,brown_420@vend.com,"Brown, Homenick and Lesch",,111028444,97689 Davis Point Apt. 967,Victoria,8214,Australia,,True,2023-02-22 07:12:04,2023-02-22 07:12:04
VEND0421,spencer_421,spencer_421@vend.com,Spencer PLC,,422371139,2481 Mills Lock,Tasmania,7060,Australia,,False,2023-02-22 11:04:37,2023-02-22 11:04:37
VEND0422,ritchie_422,ritchie_422@vend.com,"Ritchie, Oberbrunner and Cremin",,260469584,854 Walker Dale Suite 488,Queensland,4287,Australia,,False,2023-02-22 11:30:24,2023-02-22 11:30:24
VEND0423,kovacek_423,kovacek_423@vend.com,Kovacek Ltd,,735559520,23220 Eaton Harbors,Victoria,3330,Australia,,False,2023-02-22 19:47:06,2023-02-22 19:47:06
VEND0424,pollich_424,pollich_424@vend.com,Pollich LLC,,93681934,174 Jennifer Meadow Apt. 467,Victoria,3559,Australia,,False,2023-02-23 00:24:41,2023-02-23 00:24:41
VEND0425,baumbach_425,baumbach_425@vend.com,"Baumbach, Hodkiewicz and Walsh",,230547694,47029 Jimmy Tunnel Apt. 106,New South Wales,1321,Australia,,False,2023-02-23 14:11:36,2023-02-23 14:11:36
VEND0426,koss_426,koss_426@vend.com,"Koss, McLaughlin and Mayer",,133045694,9345 Spencer Junctions Suite 183,New South Wales,2009,Australia,,False,2023-02-23 14:26:29,2023-02-23 14:26:29
VEND0427,kessler_427,kessler_427@vend.com,Kessler Group,,601935450,5097 Martin Ridges,South Australia,5403,Australia,,True,2023-02-23 16:21:23,2023-02-23 16:21:23
VEND0428,smith_428,smith_428@vend.com,Smith-Stokes,,130288193,3595 Susan Island Suite 063,Victoria,3669,Australia,,False,2023-02-23 19:10:49,2023-02-23 19:10:49
VEND0429,herman_429,herman_429@vend.com,Herman Inc,,457352619,03512 Jackson Ports,Queensland,9512,Australia,,False,2023-02-23 22:09:20,2023-02-23 22:09:20
VEND0430,kuhic_430,kuhic_430@vend.com,Kuhic LLC,,423390688,0423 Kirby Field Suite 623,New South Wales,2091,Australia,,False,2023-02-23 23:36:43,2023-02-23 23:36:43
VEND0431,pfeffer_431,pfeffer_431@vend.com,Pfeffer and Sons,,584480204,589 Matthew Brooks,Tasmania,7026,Australia,,False,2023-02-24 01:05:03,2023-02-24 01:05:03
VEND0432,botsford_432,botsford_432@vend.com,Botsford PLC,,52663373,1626 Susan Course,Western Australia,6008,Australia,,False,2023-02-24 04:29:40,2023-02-24 04:29:40
VEND0433,schoen_433,schoen_433@vend.com,"Schoen, Nienow and Bauch",,523536867,7302 Samantha Mission,Victoria,8723,Australia,,False,2023-02-24 05:09:37,2023-02-24 05:09:37
VEND0434,turner_434,turner_434@vend.com,Turner LLC,,595222529,721 Jacqueline Brooks,New South Wales,1272,Australia,,False,2023-02-24 07:35:45,2023-02-24 07:35:45
VEND0435,parker_435,parker_435@vend.com,"Parker, Nolan and Trantow",,652351260,244 Abbott Parkway,Victoria,3470,Australia,,False,2023-02-24 12:20:20,2023-02-24 12:20:20
VEND0436,ritchie_436,ritchie_436@vend.com,"Ritchie, Bradtke and Stiedemann",,461930348,75703 Hernandez Corner Suite 348,Victoria,3620,Australia,,False,2023-02-24 20:59:39,2023-02-24 20:59:39
VEND0437,ruecker_437,ruecker_437@vend.com,Ruecker-Mayert,,788500837,7369 Gabriel Tunnel,Queensland,9775,Australia,,False,2023-02-24 21:30:37,2023-02-24 21:30:37
VEND0438,ullrich_438,ullrich_438@vend.com,Ullrich Ltd,,613943676,789 Herring Manors,Tasmania,7007,Australia,,False,2023-02-24 21:40:09,2023-02-24 21:40:09
VEND0439,schmeler_439,schmeler_439@vend.com,"Schmeler, Bashirian and Price",,935961032,5569 Phillips Neck Apt. 003,Victoria,8922,Australia,,False,2023-02-25 01:51:29,2023-02-25 01:51:29
VEND0440,mosciski_440,mosciski_440@vend.com,Mosciski Group,,945090781,2306 Clark Ranch Suite 515,Tasmania,7439,Australia,,True,2023-02-25 07:18:35,2023-02-25 07:18:35
VEND0441,boehm_441,boehm_441@vend.com,"Boehm, Block and Jakubowski",,560332437,29606 Martinez Views Suite 653,South Australia,5461,Australia,,True,2023-02-25 17:10:22,2023-02-25 17:10:22
VEND0442,deckow_442,deckow_442@vend.com,Deckow-Dare,,545733014,3337 Lisa Divide,Victoria,3710,Australia,,True,2023-02-25 22:52:07,2023-02-25 22:52:07
VEND0443,beer_443,beer_443@vend.com,Beer-Jast,,395181594,168 Michael Coves Suite 343,Victoria,3529,Australia,,False,2023-02-26 06:10:43,2023-02-26 06:10:43
VEND0444,schimmel_444,schimmel_444@vend.com,Schimmel-Olson,,464593349,74835 Garner Point,Queensland,9319,Australia,,False,2023-02-26 08:54:58,2023-02-26 08:54:58
VEND0445,schmeler_445,schmeler_445@vend.com,Schmeler Inc,,492816282,7188 Melissa Crest Apt. 151,Victoria,3061,Australia,,False,2023-02-26 09:35:24,2023-02-26 09:35:24
VEND0446,thiel_446,thiel_446@vend.com,Thiel PLC,,316239209,4664 Sanchez Common Suite 930,Queensland,9819,Australia,,True,2023-02-26 10:11:09,2023-02-26 10:11:09
VEND0447,boehm_447,boehm_447@vend.com,"Boehm, Predovic and Reinger",,543871330,854 Walker Dale Suite 488,Queensland,4287,Australia,,True,2023-02-26 15:54:39,2023-02-26 15:54:39
VEND0448,graham_448,graham_448@vend.com,Graham and Sons,,431272863,118 Justin Extension,Western Australia,6507,Australia,,False,2023-02-26 16:55:23,2023-02-26 16:55:23
VEND0449,mccullough_449,mccullough_449@vend.com,McCullough LLC,,810328250,147 Mckinney Run Apt. 743,Queensland,9081,Australia,,False,2023-02-26 19:54:24,2023-02-26 19:54:24
VEND0450,mosciski_450,mosciski_450@vend.com,"Mosciski, Gislason and Mertz",,930832660,302 Christina Islands,New South Wales,2171,Australia,,False,2023-02-26 22:21:55,2023-02-26 22:21:55
VEND0451,schroeder_451,schroeder_451@vend.com,"Schroeder, Hauck and Treutel",,313200243,9554 Flores Drive,Victoria,3010,Australia,,False,2023-02-27 03:00:07,2023-02-27 03:00:07
VEND0452,block_452,block_452@vend.com,Block-Parisian,,882705243,8030 Beck Motorway,Victoria,8761,Australia,,False,2023-02-27 03:41:57,2023-02-27 03:41:57
VEND0453,flatley_453,flatley_453@vend.com,Flatley Group,,456915153,3638 Marsh Union,Queensland,4002,Australia,,False,2023-02-27 04:44:00,2023-02-27 04:44:00
VEND0454,mclaughlin_454,mclaughlin_454@vend.com,"McLaughlin, Armstrong and Koepp",,681934117,9486 Joel Common Suite 554,Western Australia,6618,Australia,,False,2023-02-27 06:39:30,2023-02-27 06:39:30
VEND0455,wilkinson_455,wilkinson_455@vend.com,Wilkinson LLC,,530933957,840 Werner Lock Apt. 852,Victoria,8932,Australia,,False,2023-02-27 08:32:08,2023-02-27 08:32:08
VEND0456,sawayn_456,sawayn_456@vend.com,Sawayn PLC,,304579370,27203 Darrell Landing,Victoria,3956,Australia,,False,2023-02-27 08:32:48,2023-02-27 08:32:48
VEND0457,eichmann_457,eichmann_457@vend.com,Eichmann-Russel,,285402893,561 Little Plain Apt. 738,Queensland,9895,Australia,,False,2023-02-27 13:21:04,2023-02-27 13:21:04
VEND0458,hermann_458,hermann_458@vend.com,Hermann and Sons,,160581764,32301 Albert River Suite 364,Queensland,4970,Australia,,False,2023-02-27 16:52:33,2023-02-27 16:52:33
VEND0459,goyette_459,goyette_459@vend.com,Goyette Inc,,789809665,830 Myers Plaza Apt. 384,Victoria,3034,Australia,,True,2023-02-27 20:56:49,2023-02-27 20:56:49
VEND0460,barton_460,barton_460@vend.com,Barton LLC,,449508569,8614 Reed Glen,New South Wales,2604,Australia,,True,2023-02-27 22:57:04,2023-02-27 22:57:04
VEND0461,yost_461,yost_461@vend.com,"Yost, Block and Koepp",,563558392,033 Tara Brook Suite 523,Victoria,3027,Australia,,False,2023-02-28 10:22:42,2023-02-28 10:22:42
VEND0462,kerluke_462,kerluke_462@vend.com,Kerluke-Abshire,,417125845,4038 Smith Avenue,Western Australia,6749,Australia,,True,2023-02-28 18:28:07,2023-02-28 18:28:07
VEND0463,padberg_463,padberg_463@vend.com,Padberg-Rogahn,,386445588,3522 Park Wells Suite 528,Tasmania,7327,Australia,,False,2023-02-28 23:54:32,2023-02-28 23:54:32
VEND0464,dach_464,dach_464@vend.com,Dach-Nader,,29536190,6983 Carrillo Isle,Queensland,9438,Australia,,True,2023-03-01 03:49:28,2023-03-01 03:49:28
VEND0465,wintheiser_465,wintheiser_465@vend.com,"Wintheiser, Dietrich and Schimmel",,559310900,382 Williams Stream Suite 197,New South Wales,2687,Australia,,False,2023-03-01 05:45:12,2023-03-01 05:45:12
VEND0466,champlin_466,champlin_466@vend.com,"Champlin, Rolfson and Connelly",,483033790,234 Bridges Wells Apt. 389,Victoria,3816,Australia,,False,2023-03-01 15:04:05,2023-03-01 15:04:05
VEND0467,jacobi_467,jacobi_467@vend.com,Jacobi Inc,,776278887,927 Cummings Manor Suite 318,Victoria,3129,Australia,,False,2023-03-01 22:13:11,2023-03-01 22:13:11
VEND0468,koelpin_468,koelpin_468@vend.com,Koelpin and Sons,,581063717,3522 Park Wells Suite 528,Tasmania,7327,Australia,,False,2023-03-02 00:01:22,2023-03-02 00:01:22
VEND0469,medhurst_469,medhurst_469@vend.com,"Medhurst, Labadie and Gottlieb",,858973307,1025 Robin Square,New South Wales,2513,Australia,,False,2023-03-02 02:43:27,2023-03-02 02:43:27
VEND0470,bednar_470,bednar_470@vend.com,Bednar Group,,996144291,3522 Park Wells Suite 528,Tasmania,7327,Australia,,True,2023-03-02 10:45:02,2023-03-02 10:45:02
VEND0471,friesen_471,friesen_471@vend.com,Friesen-Ortiz,,324669797,37426 Olson Villages,Western Australia,6329,Australia,,False,2023-03-02 12:08:43,2023-03-02 12:08:43
VEND0472,turner_472,turner_472@vend.com,"Turner, Ruecker and Parisian",,818734263,154 Hernandez Keys,South Australia,5567,Australia,,False,2023-03-02 12:29:04,2023-03-02 12:29:04
VEND0473,rutherford_473,rutherford_473@vend.com,Rutherford-Mertz,,366578560,6296 John Keys Suite 858,New South Wales,2958,Australia,,False,2023-03-02 14:06:08,2023-03-02 14:06:08
VEND0474,gutmann_474,gutmann_474@vend.com,Gutmann-Upton,,638605457,3522 Park Wells Suite 528,Tasmania,7327,Australia,,False,2023-03-02 14:10:40,2023-03-02 14:10:40
VEND0475,medhurst_475,medhurst_475@vend.com,"Medhurst, Cartwright and Ebert",,124025837,701 Wilson Divide,Western Australia,6322,Australia,,False,2023-03-02 14:33:18,2023-03-02 14:33:18
VEND0476,nicolas_476,nicolas_476@vend.com,"Nicolas, Hills and McGlynn",,178848915,516 Brown Parks,Queensland,9854,Australia,,True,2023-03-02 16:17:32,2023-03-02 16:17:32
VEND0477,nitzsche_477,nitzsche_477@vend.com,"Nitzsche, Kessler and Wolff",,970453799,372 Jeffrey Course,Queensland,9165,Australia,,False,2023-03-03 07:10:34,2023-03-03 07:10:34
VEND0478,wilkinson_478,wilkinson_478@vend.com,Wilkinson Ltd,,59630500,72966 Shannon Pass Apt. 391,New South Wales,2011,Australia,,False,2023-03-03 07:16:41,2023-03-03 07:16:41
VEND0479,kris_479,kris_479@vend.com,Kris-Kertzmann,,19737356,5323 Walker Island,South Australia,5217,Australia,,False,2023-03-03 10:56:59,2023-03-03 10:56:59
VEND0480,roberts_480,roberts_480@vend.com,Roberts-Beahan,,244663135,174 Jennifer Meadow Apt. 467,Victoria,3559,Australia,,True,2023-03-03 17:07:08,2023-03-03 17:07:08
VEND0481,bernhard_481,bernhard_481@vend.com,Bernhard-Lesch,,981358631,0423 Kirby Field Suite 623,New South Wales,2091,Australia,,True,2023-03-03 20:57:01,2023-03-03 20:57:01
VEND0482,monahan_482,monahan_482@vend.com,"Monahan, Bogisich and Ledner",,568287204,9486 Joel Common Suite 554,Western Australia,6618,Australia,,False,2023-03-03 22:37:17,2023-03-03 22:37:17
VEND0483,kessler_483,kessler_483@vend.com,Kessler Inc,,917871818,838 Dan Haven Suite 003,New South Wales,2595,Australia,,False,2023-03-03 22:37:21,2023-03-03 22:37:21
VEND0484,padberg_484,padberg_484@vend.com,Padberg-Welch,,511691045,0374 Courtney Islands Apt. 400,New South Wales,1812,Australia,,False,2023-03-03 23:08:11,2023-03-03 23:08:11
VEND0485,block_485,block_485@vend.com,Block Group,,733566924,0356 Sarah Light,Victoria,3021,Australia,,False,2023-03-04 10:04:25,2023-03-04 10:04:25
VEND0486,torphy_486,torphy_486@vend.com,Torphy-Goyette,,144518089,4293 Ramirez Squares,Western Australia,6668,Australia,,False,2023-03-04 10:39:40,2023-03-04 10:39:40
VEND0487,mante_487,mante_487@vend.com,"Mante, Luettgen and Hackett",,713680210,0374 Courtney Islands Apt. 400,New South Wales,1812,Australia,,False,2023-03-04 15:26:00,2023-03-04 15:26:00
VEND0488,bailey_488,bailey_488@vend.com,Bailey-Morar,,735789587,90662 Lewis Avenue,New South Wales,2908,Australia,,False,2023-03-04 18:24:30,2023-03-04 18:24:30
VEND0489,lynch_489,lynch_489@vend.com,Lynch-Mohr,,242065619,8699 Lindsay Ford Apt. 486,Queensland,4558,Australia,,False,2023-03-04 22:43:33,2023-03-04 22:43:33
VEND0490,rodriguez_490,rodriguez_490@vend.com,"Rodriguez, Yost and Jenkins",,746806298,619 Jeremy Garden Apt. 681,Victoria,3803,Australia,,False,2023-03-05 00:18:08,2023-03-05 00:18:08
VEND0491,stamm_491,stamm_491@vend.com,Stamm-Rodriguez,,659976630,0912 Mark Fields Apt. 080,Tasmania,7051,Australia,,False,2023-03-05 01:38:46,2023-03-05 01:38:46
VEND0492,okuneva_492,okuneva_492@vend.com,"Okuneva, Schneider and Rau",,297220948,561 Little Plain Apt. 738,Queensland,9895,Australia,,False,2023-03-05 09:14:15,2023-03-05 09:14:15
VEND0493,hirthe_493,hirthe_493@vend.com,Hirthe-Beier,,368699336,43809 Kenneth Circles Suite 152,Queensland,4983,Australia,,False,2023-03-05 13:42:04,2023-03-05 13:42:04
VEND0494,tromp_494,tromp_494@vend.com,Tromp Group,,811420116,135 Joseph Mountains,Queensland,9871,Australia,,False,2023-03-05 17:28:25,2023-03-05 17:28:25
VEND0495,schroeder_495,schroeder_495@vend.com,"Schroeder, Wolff and Hermiston",,132848794,2123 Jonathan Falls Suite 753,Tasmania,7754,Australia,,False,2023-03-05 21:36:27,2023-03-05 21:36:27
VEND0496,reichert_496,reichert_496@vend.com,"Reichert, Rowe and Mraz",,578023716,458 Phillips Island Apt. 768,New South Wales,2726,Australia,,True,2023-03-05 21:42:26,2023-03-05 21:42:26
VEND0497,bahringer_497,bahringer_497@vend.com,Bahringer-Streich,,953610136,0110 Ashley Forest,Queensland,9033,Australia,,False,2023-03-06 03:04:32,2023-03-06 03:04:32
VEND0498,romaguera_498,romaguera_498@vend.com,Romaguera and Sons,,831335606,5097 Martin Ridges,South Australia,5403,Australia,,True,2023-03-06 04:22:00,2023-03-06 04:22:00
VEND0499,lemke_499,lemke_499@vend.com,Lemke-Gutmann,,45276512,619 Jeremy Garden Apt. 681,Victoria,3803,Australia,,True,2023-03-06 04:36:04,2023-03-06 04:36:04
VEND0500,heller_500,heller_500@vend.com,Heller-Langosh,,100606991,24607 Charles Mountains,Western Australia,6034,Australia,,True,2023-03-06 09:32:40,2023-03-06 09:32:40
VEND0501,hintz_501,hintz_501@vend.com,Hintz-Bruen,,800906065,77944 Daniels Valley Suite 921,Victoria,3316,Australia,,True,2023-03-06 18:38:01,2023-03-06 18:38:01
VEND0502,mcglynn_502,mcglynn_502@vend.com,McGlynn-Heathcote,,692534803,72030 Shelton Crossing Apt. 742,Tasmania,7980,Australia,,False,2023-03-06 20:46:59,2023-03-06 20:46:59
VEND0503,bernhard_503,bernhard_503@vend.com,Bernhard Inc,,724471098,8699 Lindsay Ford Apt. 486,Queensland,4558,Australia,,False,2023-03-07 11:36:37,2023-03-07 11:36:37
VEND0504,bahringer_504,bahringer_504@vend.com,Bahringer-Larson,,627764422,7915 Dawn Roads Apt. 544,New South Wales,1964,Australia,,True,2023-03-07 15:44:00,2023-03-07 15:44:00
VEND0505,reilly_505,reilly_505@vend.com,"Reilly, Heaney and Cole",,461948823,2788 Brittney Island,Queensland,4726,Australia,,True,2023-03-07 16:40:03,2023-03-07 16:40:03
VEND0506,bernier_506,bernier_506@vend.com,"Bernier, Streich and Jewess",,670341037,582 Rodriguez Wells,Tasmania,7109,Australia,,False,2023-03-07 23:49:34,2023-03-07 23:49:34
VEND0507,friesen_507,friesen_507@vend.com,Friesen-D'Amore,,582919485,0547 Russell Ford Suite 574,New South Wales,2824,Australia,,False,2023-03-08 01:51:21,2023-03-08 01:51:21
VEND0508,huel_508,huel_508@vend.com,"Huel, Hammes and Witting",,741070564,4005 Dana Glens,New South Wales,1844,Australia,,True,2023-03-08 05:23:32,2023-03-08 05:23:32
VEND0509,miller_509,miller_509@vend.com,Miller-Hauck,,580245064,696 Matthew Ford Suite 157,New South Wales,2970,Australia,,False,2023-03-08 05:38:15,2023-03-08 05:38:15
VEND0510,skiles_510,skiles_510@vend.com,Skiles-Ankunding,,889883449,350 Stacy Glens,Tasmania,7374,Australia,,False,2023-03-08 06:32:14,2023-03-08 06:32:14
VEND0511,schmitt_511,schmitt_511@vend.com,Schmitt Ltd,,48561805,26544 Andrea Glen,Victoria,8438,Australia,,False,2023-03-08 17:07:16,2023-03-08 17:07:16
VEND0512,kerluke_512,kerluke_512@vend.com,Kerluke Inc,,21244650,343 Joshua Views,Western Australia,6946,Australia,,False,2023-03-08 17:58:11,2023-03-08 17:58:11
VEND0513,volkman_513,volkman_513@vend.com,Volkman Ltd,,466171322,621 Smith Hollow Apt. 738,Western Australia,6616,Australia,,False,2023-03-08 22:09:26,2023-03-08 22:09:26
VEND0514,prohaska_514,prohaska_514@vend.com,Prohaska-Murray,,373053713,23142 Montoya Island Apt. 742,South Australia,5829,Australia,,True,2023-03-09 06:15:14,2023-03-09 06:15:14
VEND0515,schmitt_515,schmitt_515@vend.com,Schmitt Inc,,977570537,01479 Murray Circle,Tasmania,7747,Australia,,False,2023-03-09 14:45:00,2023-03-09 14:45:00
VEND0516,kerluke_516,kerluke_516@vend.com,"Kerluke, Considine and Macejkovic",,545903139,68248 Deanna Land,New South Wales,2047,Australia,,False,2023-03-09 22:44:39,2023-03-09 22:44:39
VEND0517,kutch_517,kutch_517@vend.com,Kutch-Hegmann,,12926413,892 Solis Neck,South Australia,5046,Australia,,False,2023-03-10 01:14:33,2023-03-10 01:14:33
VEND0518,spinka_518,spinka_518@vend.com,Spinka Inc,,59275940,7952 Karen Pike,Western Australia,6018,Australia,,False,2023-03-10 05:20:33,2023-03-10 05:20:33
VEND0519,stracke_519,stracke_519@vend.com,Stracke-Lemke,,231546538,137 Adam Dale,Queensland,4266,Australia,,True,2023-03-10 08:20:32,2023-03-10 08:20:32
VEND0520,raynor_520,raynor_520@vend.com,"Raynor, Feest and Miller",,700582394,43576 Kristina Islands,South Australia,5442,Australia,,False,2023-03-10 10:39:42,2023-03-10 10:39:42
VEND0521,strosin_521,strosin_521@vend.com,Strosin-Cruickshank,,413941092,5395 Colon Burgs Suite 037,Western Australia,6578,Australia,,False,2023-03-10 16:18:25,2023-03-10 16:18:25
VEND0522,schaefer_522,schaefer_522@vend.com,"Schaefer, McGlynn and Bosco",,330563105,27909 Peter Motorway,New South Wales,2211,Australia,,True,2023-03-10 19:50:29,2023-03-10 19:50:29
VEND0523,marks_523,marks_523@vend.com,Marks Inc,,623803512,8510 Acevedo Burgs,Tasmania,7033,Australia,,False,2023-03-10 23:58:30,2023-03-10 23:58:30
VEND0524,huel_524,huel_524@vend.com,Huel-Langworth,,429115169,597 Jenny Ford Apt. 543,New South Wales,2986,Australia,,False,2023-03-11 01:53:10,2023-03-11 01:53:10
VEND0525,eichmann_525,eichmann_525@vend.com,"Eichmann, Bogan and Rodriguez",,999606625,4970 Michelle Burgs,New South Wales,1217,Australia,,True,2023-03-11 03:30:13,2023-03-11 03:30:13
VEND0526,morissette_526,morissette_526@vend.com,"Morissette, Weber and Wiegand",,808924394,6343 Ramirez Skyway Apt. 518,South Australia,5453,Australia,,False,2023-03-11 06:01:11,2023-03-11 06:01:11
VEND0527,moen_527,moen_527@vend.com,"Moen, Reinger and Murphy",,266626876,927 Cummings Manor Suite 318,Victoria,3129,Australia,,False,2023-03-11 10:09:37,2023-03-11 10:09:37
VEND0528,schultz_528,schultz_528@vend.com,"Schultz, Simonis and Little",,930380592,897 Daugherty Mission,Western Australia,6839,Australia,,False,2023-03-11 19:45:50,2023-03-11 19:45:50
VEND0529,ferry_529,ferry_529@vend.com,"Ferry, Lynch and Kautzer",,830584484,43576 Kristina Islands,South Australia,5442,Australia,,False,2023-03-12 08:06:12,2023-03-12 08:06:12
VEND0530,osinski_530,osinski_530@vend.com,"Osinski, Ledner and Leuschke",,378610369,72966 Shannon Pass Apt. 391,New South Wales,2011,Australia,,False,2023-03-12 13:16:02,2023-03-12 13:16:02
VEND0531,ledner_531,ledner_531@vend.com,Ledner-Pfannerstill,,388042941,7854 Stephanie Island Suite 788,Victoria,3985,Australia,,False,2023-03-12 19:47:40,2023-03-12 19:47:40
VEND0532,o_532,o_532@vend.com,O'Keefe-Hudson,,486219610,26544 Andrea Glen,Victoria,8438,Australia,,False,2023-03-13 01:19:59,2023-03-13 01:19:59
VEND0533,murray_533,murray_533@vend.com,Murray Ltd,,28730016,250 Benjamin Hill Apt. 026,Western Australia,6617,Australia,,False,2023-03-13 06:26:22,2023-03-13 06:26:22
VEND0534,pfeffer_534,pfeffer_534@vend.com,Pfeffer LLC,,243974328,23656 Harris Gardens Suite 698,Queensland,9906,Australia,,False,2023-03-13 06:54:14,2023-03-13 06:54:14
VEND0535,cole_535,cole_535@vend.com,Cole PLC,,428106163,19838 Tonya Prairie Apt. 947,South Australia,5072,Australia,,False,2023-03-13 18:51:12,2023-03-13 18:51:12
VEND0536,hudson_536,hudson_536@vend.com,Hudson-Ratke,,397449664,29606 Martinez Views Suite 653,South Australia,5461,Australia,,False,2023-03-13 21:23:16,2023-03-13 21:23:16
VEND0537,kuvalis_537,kuvalis_537@vend.com,Kuvalis Ltd,,636818935,320 Nicholson Orchard,Queensland,4540,Australia,,True,2023-03-14 02:19:29,2023-03-14 02:19:29
VEND0538,miller_538,miller_538@vend.com,Miller-Harris,,863345520,821 Solis Points,Queensland,9440,Australia,,False,2023-03-14 03:13:18,2023-03-14 03:13:18
VEND0539,zieme_539,zieme_539@vend.com,"Zieme, Bode and Dooley",,709887791,857 Aaron Circles Suite 398,Queensland,9455,Australia,,False,2023-03-14 04:15:20,2023-03-14 04:15:20
VEND0540,swaniawski_540,swaniawski_540@vend.com,"Swaniawski, Lowe and Robel",,364946692,5654 Peterson Land,Queensland,9157,Australia,,True,2023-03-14 12:22:53,2023-03-14 12:22:53
VEND0541,kemmer_541,kemmer_541@vend.com,Kemmer-Buckridge,,99139340,2924 Bobby Trafficway,Victoria,3872,Australia,,True,2023-03-14 16:34:58,2023-03-14 16:34:58
VEND0542,swift_542,swift_542@vend.com,"Swift, Bradtke and Marquardt",,794103155,246 Stewart Green Suite 149,New South Wales,1291,Australia,,False,2023-03-14 17:52:32,2023-03-14 17:52:32
VEND0543,olson_543,olson_543@vend.com,"Olson, Becker and Koch",,17206859,93914 Gregory Via,Queensland,4619,Australia,,True,2023-03-14 22:21:44,2023-03-14 22:21:44
VEND0544,bartoletti_544,bartoletti_544@vend.com,Bartoletti-Wunsch,,232699798,673 Delgado Burg,Victoria,8323,Australia,,False,2023-03-15 06:39:35,2023-03-15 06:39:35
VEND0545,emard_545,emard_545@vend.com,Emard Inc,,221587779,5204 Robinson Plaza Suite 897,New South Wales,2630,Australia,,False,2023-03-15 06:42:20,2023-03-15 06:42:20
VEND0546,ferry_546,ferry_546@vend.com,"Ferry, Reichel and DuBuque",,313409525,02110 Lucas Freeway Suite 517,New South Wales,1006,Australia,,False,2023-03-15 08:13:54,2023-03-15 08:13:54
VEND0547,kemmer_547,kemmer_547@vend.com,Kemmer-Reinger,,408734902,8415 Vaughn Squares Apt. 788,Victoria,3601,Australia,,False,2023-03-15 08:22:24,2023-03-15 08:22:24
VEND0548,koss_548,koss_548@vend.com,Koss and Sons,,530744674,463 Willie Estates,Queensland,4633,Australia,,False,2023-03-15 16:23:28,2023-03-15 16:23:28
VEND0549,hackett_549,hackett_549@vend.com,Hackett-Lueilwitz,,202406645,6602 Ortiz Pine Apt. 179,Western Australia,6626,Australia,,True,2023-03-15 16:35:18,2023-03-15 16:35:18
VEND0550,barton_550,barton_550@vend.com,Barton Inc,,258150217,69252 Oconnor Alley Apt. 153,New South Wales,2576,Australia,,False,2023-03-15 19:29:35,2023-03-15 19:29:35
VEND0551,lockman_551,lockman_551@vend.com,Lockman Ltd,,509250702,319 Wendy Fort Suite 179,Tasmania,7132,Australia,,False,2023-03-15 21:37:07,2023-03-15 21:37:07
VEND0552,klocko_552,klocko_552@vend.com,Klocko LLC,,815216091,57256 Raymond Ports,Tasmania,7932,Australia,,False,2023-03-15 22:35:30,2023-03-15 22:35:30
VEND0553,kunze_553,kunze_553@vend.com,Kunze Inc,,74738931,5053 Bell Crescent Apt. 255,Victoria,8638,Australia,,False,2023-03-15 23:05:31,2023-03-15 23:05:31
VEND0554,luettgen_554,luettgen_554@vend.com,Luettgen PLC,,54013918,7421 Serrano Lane Apt. 580,Tasmania,7849,Australia,,False,2023-03-16 03:10:11,2023-03-16 03:10:11
VEND0555,cummerata_555,cummerata_555@vend.com,Cummerata-Jones,,264947797,7202 Jeffrey Mills,Victoria,8238,Australia,,True,2023-03-16 03:19:12,2023-03-16 03:19:12
VEND0556,rowe_556,rowe_556@vend.com,"Rowe, Batz and Goodwin",,606805704,67210 Lori Creek,South Australia,5092,Australia,,False,2023-03-16 08:50:26,2023-03-16 08:50:26
VEND0557,kling_557,kling_557@vend.com,Kling Inc,,602399173,840 Werner Lock Apt. 852,Victoria,8932,Australia,,True,2023-03-16 11:27:07,2023-03-16 11:27:07
VEND0558,kiehn_558,kiehn_558@vend.com,Kiehn-Emmerich,,228199573,67632 Martin Gateway,New South Wales,2732,Australia,,False,2023-03-16 12:29:49,2023-03-16 12:29:49
VEND0559,parisian_559,parisian_559@vend.com,Parisian and Sons,,737538043,4938 Hatfield Course,South Australia,5106,Australia,,False,2023-03-16 13:35:00,2023-03-16 13:35:00
VEND0560,sporer_560,sporer_560@vend.com,Sporer Inc,,36286570,13108 Jennifer Passage,Tasmania,7556,Australia,,False,2023-03-16 16:13:51,2023-03-16 16:13:51
VEND0561,kuphal_561,kuphal_561@vend.com,Kuphal-Bartoletti,,346398065,5572 Kelly Plains Apt. 952,Queensland,4981,Australia,,True,2023-03-16 16:34:02,2023-03-16 16:34:02
VEND0562,harris_562,harris_562@vend.com,"Harris, Gusikowski and Heaney",,281490078,065 Jones Stravenue,Tasmania,7034,Australia,,True,2023-03-16 17:06:50,2023-03-16 17:06:50
VEND0563,mraz_563,mraz_563@vend.com,Mraz-Herzog,,679455732,0611 Stafford Valley Suite 504,Queensland,4112,Australia,,False,2023-03-16 19:43:20,2023-03-16 19:43:20
VEND0564,huels_564,huels_564@vend.com,Huels-Hahn,,366298769,6611 Parrish Garden Apt. 428,South Australia,5896,Australia,,False,2023-03-16 21:35:07,2023-03-16 21:35:07
VEND0565,stroman_565,stroman_565@vend.com,"Stroman, Hudson and Erdman",,296473303,516 Brown Parks,Queensland,9854,Australia,,False,2023-03-16 21:54:22,2023-03-16 21:54:22
VEND0566,huel_566,huel_566@vend.com,Huel Ltd,,508450704,03090 Fisher Forges Apt. 200,Tasmania,7216,Australia,,False,2023-03-16 21:56:32,2023-03-16 21:56:32
VEND0567,cremin_567,cremin_567@vend.com,"Cremin, Hamill and Reichel",,376199189,37732 Joe Courts Apt. 752,New South Wales,1305,Australia,,False,2023-03-17 02:53:53,2023-03-17 02:53:53
VEND0568,rowe_568,rowe_568@vend.com,Rowe-Vandervort,,192916105,330 Montoya Ramp,New South Wales,2036,Australia,,False,2023-03-17 22:09:49,2023-03-17 22:09:49
VEND0569,bins_569,bins_569@vend.com,Bins-Rice,,943051129,3304 Hernandez Run,Queensland,9705,Australia,,True,2023-03-17 23:49:24,2023-03-17 23:49:24
VEND0570,dubuque_570,dubuque_570@vend.com,DuBuque LLC,,725013359,7421 Serrano Lane Apt. 580,Tasmania,7849,Australia,,False,2023-03-18 02:47:17,2023-03-18 02:47:17
VEND0571,torp_571,torp_571@vend.com,Torp-Labadie,,635823017,1898 Parker Fork Apt. 057,Victoria,3665,Australia,,False,2023-03-18 10:00:10,2023-03-18 10:00:10
VEND0572,kiehn_572,kiehn_572@vend.com,Kiehn Inc,,154703770,126 Underwood Drive,New South Wales,2128,Australia,,True,2023-03-18 12:49:31,2023-03-18 12:49:31
VEND0573,tillman_573,tillman_573@vend.com,"Tillman, Dickinson and Labadie",,838444087,715 Courtney Pike Suite 932,Western Australia,6248,Australia,,True,2023-03-18 14:05:38,2023-03-18 14:05:38
VEND0574,friesen_574,friesen_574@vend.com,Friesen-Stamm,,127333090,901 Todd Gardens Apt. 466,New South Wales,2561,Australia,,False,2023-03-18 14:39:20,2023-03-18 14:39:20
VEND0575,kuhic_575,kuhic_575@vend.com,Kuhic Inc,,530368125,383 Long Islands,Victoria,3755,Australia,,False,2023-03-19 09:44:38,2023-03-19 09:44:38
VEND0576,dickinson_576,dickinson_576@vend.com,Dickinson-Rempel,,849923339,6638 Lucero Mill Suite 952,South Australia,5661,Australia,,False,2023-03-19 22:54:00,2023-03-19 22:54:00
VEND0577,hudson_577,hudson_577@vend.com,Hudson-Grady,,65159406,07712 Marcus Divide Apt. 831,New South Wales,2637,Australia,,False,2023-03-20 05:03:51,2023-03-20 05:03:51
VEND0578,goldner_578,goldner_578@vend.com,"Goldner, Kovacek and Abbott",,417320560,458 Phillips Island Apt. 768,New South Wales,2726,Australia,,False,2023-03-20 07:50:07,2023-03-20 07:50:07
VEND0579,corwin_579,corwin_579@vend.com,Corwin-Collins,,949205766,343 Hannah Parkway,South Australia,5049,Australia,,False,2023-03-20 18:06:37,2023-03-20 18:06:37
VEND0580,tillman_580,tillman_580@vend.com,"Tillman, Fritsch and Schmitt",,353592098,82468 Michelle Village Suite 556,New South Wales,2432,Australia,,False,2023-03-20 22:33:33,2023-03-20 22:33:33
VEND0581,dach_581,dach_581@vend.com,Dach-Borer,,459919350,979 Stewart Lake,Queensland,9809,Australia,,False,2023-03-20 22:47:30,2023-03-20 22:47:30
VEND0582,morar_582,morar_582@vend.com,Morar Inc,,559976155,6366 French Field,New South Wales,2455,Australia,,False,2023-03-21 05:11:59,2023-03-21 05:11:59
VEND0583,kutch_583,kutch_583@vend.com,"Kutch, Hermiston and Farrell",,676619255,354 Gutierrez Gateway,Western Australia,6019,Australia,,False,2023-03-21 05:18:27,2023-03-21 05:18:27
VEND0584,connelly_584,connelly_584@vend.com,"Connelly, Reichert and Fritsch",,337756918,1831 Faith View Suite 653,New South Wales,1632,Australia,,False,2023-03-21 15:51:19,2023-03-21 15:51:19
VEND0585,schamberger_585,schamberger_585@vend.com,Schamberger-O'Keefe,,130339108,95488 Cabrera Well,South Australia,5860,Australia,,False,2023-03-21 18:05:27,2023-03-21 18:05:27
VEND0586,mcdermott_586,mcdermott_586@vend.com,McDermott-Weimann,,157926772,37426 Olson Villages,Western Australia,6329,Australia,,True,2023-03-21 19:24:08,2023-03-21 19:24:08
VEND0587,kerluke_587,kerluke_587@vend.com,Kerluke PLC,,357625344,0107 Clements Point,Queensland,4003,Australia,,True,2023-03-21 23:02:13,2023-03-21 23:02:13
VEND0588,casper_588,casper_588@vend.com,"Casper, Hand and Zulauf",,292873300,0925 Lang Extensions,Victoria,8569,Australia,,True,2023-03-22 00:58:24,2023-03-22 00:58:24
VEND0589,greenfelder_589,greenfelder_589@vend.com,"Greenfelder, Bartoletti and Davis",,434359427,8617 Holmes Terrace Suite 651,New South Wales,1790,Australia,,False,2023-03-22 02:15:32,2023-03-22 02:15:32
VEND0590,cartwright_590,cartwright_590@vend.com,Cartwright-Harris,,511711385,25360 Mcgee Forge,New South Wales,1832,Australia,,True,2023-03-22 02:21:17,2023-03-22 02:21:17
VEND0591,rau_591,rau_591@vend.com,Rau and Sons,,64888664,005 Cody Estates,New South Wales,2202,Australia,,False,2023-03-22 06:49:51,2023-03-22 06:49:51
VEND0592,erdman_592,erdman_592@vend.com,Erdman-Kertzmann,,248210463,32941 Krystal Mill Apt. 552,New South Wales,2780,Australia,,False,2023-03-22 07:59:01,2023-03-22 07:59:01
VEND0593,hamill_593,hamill_593@vend.com,Hamill-Daugherty,,122178614,43075 Cohen Shoals,Victoria,8304,Australia,,True,2023-03-22 08:47:01,2023-03-22 08:47:01
VEND0594,jaskolski_594,jaskolski_594@vend.com,Jaskolski-Vandervort,,925034905,57887 Gutierrez Harbor,Tasmania,7492,Australia,,False,2023-03-22 19:48:43,2023-03-22 19:48:43
VEND0595,huels_595,huels_595@vend.com,Huels-Nolan,,65439639,0374 Courtney Islands Apt. 400,New South Wales,1812,Australia,,False,2023-03-22 22:04:32,2023-03-22 22:04:32
VEND0596,trantow_596,trantow_596@vend.com,Trantow PLC,,312520615,19838 Tonya Prairie Apt. 947,South Australia,5072,Australia,,True,2023-03-22 23:48:15,2023-03-22 23:48:15
VEND0597,lockman_597,lockman_597@vend.com,"Lockman, West and Runte",,574586339,55363 Aaron Circle Suite 450,Tasmania,7041,Australia,,False,2023-03-23 02:26:17,2023-03-23 02:26:17
VEND0598,johnson_598,johnson_598@vend.com,"Johnson, Runolfsdottir and Mayer",,264401261,07712 Marcus Divide Apt. 831,New South Wales,2637,Australia,,False,2023-03-23 03:45:39,2023-03-23 03:45:39
VEND0599,kovacek_599,kovacek_599@vend.com,"Kovacek, Dibbert and Ondricka",,764887243,47144 Roberts Keys,Tasmania,7750,Australia,,False,2023-03-23 03:46:33,2023-03-23 03:46:33
VEND0600,raynor_600,raynor_600@vend.com,"Raynor, Reinger and Hagenes",,368027463,04975 Allison Shoal,New South Wales,2463,Australia,,False,2023-03-23 05:34:26,2023-03-23 05:34:26
VEND0601,kutch_601,kutch_601@vend.com,Kutch LLC,,292118966,3603 Mitchell Court,South Australia,5213,Australia,,False,2023-03-23 09:25:00,2023-03-23 09:25:00
VEND0602,dooley_602,dooley_602@vend.com,Dooley-Thompson,,397999167,2924 Bobby Trafficway,Victoria,3872,Australia,,True,2023-03-23 14:21:18,2023-03-23 14:21:18
VEND0603,harber_603,harber_603@vend.com,Harber Inc,,136754231,2887 Olson Road Suite 439,South Australia,5428,Australia,,True,2023-03-23 17:12:37,2023-03-23 17:12:37
VEND0604,schumm_604,schumm_604@vend.com,"Schumm, Bauch and Ondricka",,55259910,3531 Hamilton Highway,Victoria,8584,Australia,,True,2023-03-23 19:22:00,2023-03-23 19:22:00
VEND0605,moore_605,moore_605@vend.com,"Moore, Dibbert and Koepp",,653032686,44089 Carrie Crossing Suite 954,Victoria,8113,Australia,,False,2023-03-23 20:33:29,2023-03-23 20:33:29
VEND0606,flatley_606,flatley_606@vend.com,Flatley-Durgan,,799658404,759 Erin Mount Suite 956,Western Australia,6857,Australia,,False,2023-03-23 20:45:37,2023-03-23 20:45:37
VEND0607,rodriguez_607,rodriguez_607@vend.com,Rodriguez Group,,581383553,23843 Scott Island,New South Wales,2535,Australia,,False,2023-03-23 23:16:07,2023-03-23 23:16:07
VEND0608,stokes_608,stokes_608@vend.com,"Stokes, Christiansen and Sipes",,180720198,554 Mcdonald Valley Apt. 539,Western Australia,6665,Australia,,False,2023-03-24 03:26:27,2023-03-24 03:26:27
VEND0609,heidenreich_609,heidenreich_609@vend.com,Heidenreich PLC,,261552568,1898 Parker Fork Apt. 057,Victoria,3665,Australia,,False,2023-03-24 08:37:25,2023-03-24 08:37:25
VEND0610,bauch_610,bauch_610@vend.com,Bauch-Raynor,,621341196,558 Michael Estates,Victoria,3453,Australia,,False,2023-03-24 16:18:42,2023-03-24 16:18:42
VEND0611,langworth_611,langworth_611@vend.com,"Langworth, Boehm and Gulgowski",,955088481,27718 Mason Bypass,South Australia,5051,Australia,,True,2023-03-24 18:51:04,2023-03-24 18:51:04
VEND0612,runolfsson_612,runolfsson_612@vend.com,Runolfsson and Sons,,811347800,35440 Ryan Islands,Victoria,3153,Australia,,False,2023-03-24 19:54:19,2023-03-24 19:54:19
VEND0613,ortiz_613,ortiz_613@vend.com,Ortiz Group,,75337087,954 Reyes Ways,Tasmania,7340,Australia,,False,2023-03-25 00:24:35,2023-03-25 00:24:35
VEND0614,zemlak_614,zemlak_614@vend.com,Zemlak Group,,266100420,5619 Mendoza Inlet,New South Wales,1046,Australia,,True,2023-03-25 08:02:31,2023-03-25 08:02:31
VEND0615,wuckert_615,wuckert_615@vend.com,Wuckert-Walter,,50989831,3337 Lisa Divide,Victoria,3710,Australia,,False,2023-03-25 11:51:41,2023-03-25 11:51:41
VEND0616,tromp_616,tromp_616@vend.com,"Tromp, Kerluke and Glover",,395067176,95351 Sullivan Viaduct Apt. 239,Victoria,3981,Australia,,False,2023-03-25 11:58:29,2023-03-25 11:58:29
VEND0617,ruecker_617,ruecker_617@vend.com,Ruecker Group,,382095242,889 Sarah Station Suite 624,Tasmania,7851,Australia,,True,2023-03-26 00:12:36,2023-03-26 00:12:36
VEND0618,deckow_618,deckow_618@vend.com,Deckow-O'Conner,,612933897,137 Adam Dale,Queensland,4266,Australia,,True,2023-03-26 08:38:39,2023-03-26 08:38:39
VEND0619,heller_619,heller_619@vend.com,"Heller, Gutmann and Zieme",,640138640,956 Sanchez Highway,New South Wales,1836,Australia,,True,2023-03-26 08:58:01,2023-03-26 08:58:01
VEND0620,robel_620,robel_620@vend.com,"Robel, Cummerata and Prosacco",,456652433,369 Cochran Radial,Tasmania,7311,Australia,,False,2023-03-26 11:35:25,2023-03-26 11:35:25
VEND0621,lind_621,lind_621@vend.com,"Lind, Huel and McClure",,252010440,269 Sanchez Rapids,Tasmania,7208,Australia,,True,2023-03-26 20:37:24,2023-03-26 20:37:24
VEND0622,roob_622,roob_622@vend.com,Roob LLC,,360759745,137 Adam Dale,Queensland,4266,Australia,,False,2023-03-26 21:53:26,2023-03-26 21:53:26
VEND0623,vonrueden_623,vonrueden_623@vend.com,VonRueden Group,,655832045,6274 David Oval Suite 725,Queensland,4074,Australia,,True,2023-03-26 23:14:48,2023-03-26 23:14:48
VEND0624,wolf_624,wolf_624@vend.com,Wolf Inc,,131401752,9670 Monroe Junctions,South Australia,5557,Australia,,True,2023-03-27 02:41:41,2023-03-27 02:41:41
VEND0625,kutch_625,kutch_625@vend.com,Kutch and Sons,,741951931,4440 George Mills Suite 591,South Australia,5210,Australia,,True,2023-03-27 06:03:30,2023-03-27 06:03:30
VEND0626,gutmann_626,gutmann_626@vend.com,Gutmann Ltd,,630852918,31701 Tucker Square Suite 893,Victoria,8579,Australia,,False,2023-03-27 06:49:44,2023-03-27 06:49:44
VEND0627,jones_627,jones_627@vend.com,"Jones, Sawayn and Romaguera",,246577314,977 Rita Grove Apt. 000,New South Wales,2575,Australia,,False,2023-03-27 09:00:53,2023-03-27 09:00:53
VEND0628,brekke_628,brekke_628@vend.com,Brekke and Sons,,881574719,08580 Jeremy Falls,Tasmania,7107,Australia,,False,2023-03-27 10:46:31,2023-03-27 10:46:31
VEND0629,adams_629,adams_629@vend.com,"Adams, Kovacek and Kuhlman",,785159100,1441 Bradley Place,Victoria,8073,Australia,,True,2023-03-27 11:13:12,2023-03-27 11:13:12
VEND0630,collier_630,collier_630@vend.com,Collier Inc,,42666828,1287 Michael Roads,Queensland,9704,Australia,,False,2023-03-27 13:11:00,2023-03-27 13:11:00
VEND0631,greenholt_631,greenholt_631@vend.com,"Greenholt, Jacobi and Gleason",,737246563,1233 Sutton Road Suite 701,Western Australia,6631,Australia,,True,2023-03-27 16:15:25,2023-03-27 16:15:25
VEND0632,stehr_632,stehr_632@vend.com,"Stehr, Jewess and Schimmel",,199859830,62631 Ashley Ramp Apt. 965,New South Wales,1561,Australia,,True,2023-03-27 18:48:36,2023-03-27 18:48:36
VEND0633,koepp_633,koepp_633@vend.com,Koepp-Witting,,608975828,864 Reynolds Plains,South Australia,5484,Australia,,True,2023-03-27 19:13:56,2023-03-27 19:13:56
VEND0634,cummings_634,cummings_634@vend.com,Cummings LLC,,477612335,669 Moore Shoal,South Australia,5106,Australia,,True,2023-03-27 20:01:39,2023-03-27 20:01:39
VEND0635,wiegand_635,wiegand_635@vend.com,Wiegand-Lowe,,703505050,7188 Melissa Crest Apt. 151,Victoria,3061,Australia,,False,2023-03-27 23:45:17,2023-03-27 23:45:17
VEND0636,paucek_636,paucek_636@vend.com,Paucek-Wiza,,99974063,9870 Collins Flat,New South Wales,2072,Australia,,True,2023-03-28 02:58:41,2023-03-28 02:58:41
VEND0637,conroy_637,conroy_637@vend.com,Conroy-Cruickshank,,156602511,77872 Andrea Glen Apt. 543,Victoria,3850,Australia,,True,2023-03-28 03:01:36,2023-03-28 03:01:36
VEND0638,bogisich_638,bogisich_638@vend.com,Bogisich-Homenick,,976568630,3310 Davidson Spurs Apt. 107,Tasmania,7451,Australia,,False,2023-03-28 03:37:41,2023-03-28 03:37:41
VEND0639,jenkins_639,jenkins_639@vend.com,"Jenkins, Hauck and Friesen",,234701263,8580 Moore Cove,Queensland,9783,Australia,,False,2023-03-28 03:39:39,2023-03-28 03:39:39
VEND0640,emmerich_640,emmerich_640@vend.com,Emmerich-Luettgen,,980945245,25961 Beverly Union Apt. 042,Victoria,8659,Australia,,False,2023-03-28 04:54:26,2023-03-28 04:54:26
VEND0641,cassin_641,cassin_641@vend.com,Cassin-Harvey,,440999860,908 Brooks Brook,New South Wales,1454,Australia,,False,2023-03-28 05:32:46,2023-03-28 05:32:46
VEND0642,schaefer_642,schaefer_642@vend.com,"Schaefer, Maggio and Daugherty",,7077623,7618 Gonzales Mission,Queensland,4019,Australia,,False,2023-03-28 05:39:17,2023-03-28 05:39:17
VEND0643,kohler_643,kohler_643@vend.com,"Kohler, Lindgren and Koelpin",,186809828,31472 Cody Place Suite 740,New South Wales,2895,Australia,,True,2023-03-28 18:32:30,2023-03-28 18:32:30
VEND0644,doyle_644,doyle_644@vend.com,Doyle Ltd,,946088958,6638 Lucero Mill Suite 952,South Australia,5661,Australia,,False,2023-03-28 20:38:20,2023-03-28 20:38:20
VEND0645,heller_645,heller_645@vend.com,Heller-Abshire,,552724014,2819 Luke Greens Suite 563,Queensland,4114,Australia,,False,2023-03-29 00:12:28,2023-03-29 00:12:28
VEND0646,mosciski_646,mosciski_646@vend.com,"Mosciski, Ziemann and Farrell",,914023300,9795 Lori Island Suite 346,Queensland,9542,Australia,,True,2023-03-29 01:57:42,2023-03-29 01:57:42
VEND0647,cummings_647,cummings_647@vend.com,Cummings Group,,461990065,7188 Melissa Crest Apt. 151,Victoria,3061,Australia,,False,2023-03-29 05:45:37,2023-03-29 05:45:37
VEND0648,swaniawski_648,swaniawski_648@vend.com,"Swaniawski, Bahringer and Ledner",,465431497,759 Erin Mount Suite 956,Western Australia,6857,Australia,,False,2023-03-29 07:59:33,2023-03-29 07:59:33
VEND0649,christiansen_649,christiansen_649@vend.com,"Christiansen, Goyette and Schamberger",,325941359,886 Nicole Key,Queensland,4074,Australia,,True,2023-03-29 09:20:48,2023-03-29 09:20:48
VEND0650,bradtke_650,bradtke_650@vend.com,Bradtke PLC,,838177950,9379 Vanessa Run Apt. 400,New South Wales,1453,Australia,,False,2023-03-29 11:38:27,2023-03-29 11:38:27
VEND0651,streich_651,streich_651@vend.com,"Streich, Hansen and Veum",,861994408,97070 Anderson Land,Victoria,3844,Australia,,False,2023-03-29 20:54:49,2023-03-29 20:54:49
VEND0652,pacocha_652,pacocha_652@vend.com,Pacocha-O'Reilly,,634130286,7202 Jeffrey Mills,Victoria,8238,Australia,,False,2023-03-30 00:45:38,2023-03-30 00:45:38
VEND0653,koepp_653,koepp_653@vend.com,Koepp-Parker,,60964061,2838 White Fields Apt. 473,Queensland,9911,Australia,,True,2023-03-30 08:35:20,2023-03-30 08:35:20
VEND0654,auer_654,auer_654@vend.com,Auer-Mosciski,,677845650,58188 Madison Meadow Apt. 949,Queensland,4037,Australia,,False,2023-03-30 12:11:33,2023-03-30 12:11:33
VEND0655,wiza_655,wiza_655@vend.com,"Wiza, Schaden and Stark",,921790666,9331 Robert Passage Suite 327,Tasmania,7545,Australia,,False,2023-03-30 13:31:08,2023-03-30 13:31:08
VEND0656,kuhic_656,kuhic_656@vend.com,"Kuhic, Bins and Pfeffer",,496466799,133 Alyssa Plains,Tasmania,7971,Australia,,True,2023-03-30 18:18:21,2023-03-30 18:18:21
VEND0657,bogisich_657,bogisich_657@vend.com,Bogisich Inc,,412150261,20938 Barbara Viaduct,New South Wales,2280,Australia,,False,2023-03-30 22:06:32,2023-03-30 22:06:32
VEND0658,kling_658,kling_658@vend.com,Kling-Grant,,865930894,865 Thomas Village,New South Wales,2962,Australia,,False,2023-03-30 22:11:49,2023-03-30 22:11:49
VEND0659,kutch_659,kutch_659@vend.com,Kutch Group,,451965224,5796 Lee Coves Apt. 286,New South Wales,2476,Australia,,True,2023-03-31 02:23:50,2023-03-31 02:23:50
VEND0660,kuphal_660,kuphal_660@vend.com,Kuphal-Predovic,,719215697,44951 Williams Brooks,Queensland,9572,Australia,,True,2023-03-31 03:46:35,2023-03-31 03:46:35
VEND0661,balistreri_661,balistreri_661@vend.com,Balistreri-Nader,,185838101,8973 Mark Drive,New South Wales,2170,Australia,,True,2023-03-31 05:30:16,2023-03-31 05:30:16
VEND0662,harris_662,harris_662@vend.com,Harris Inc,,63666782,7402 West Ranch,Tasmania,7452,Australia,,False,2023-03-31 07:39:08,2023-03-31 07:39:08
VEND0663,berge_663,berge_663@vend.com,Berge LLC,,870154157,030 Seth Divide Suite 355,Queensland,4131,Australia,,False,2023-03-31 09:16:41,2023-03-31 09:16:41
VEND0664,towne_664,towne_664@vend.com,"Towne, Walker and Borer",,182536169,494 Burke Ports,South Australia,5324,Australia,,False,2023-03-31 11:07:42,2023-03-31 11:07:42
VEND0665,herman_665,herman_665@vend.com,"Herman, Treutel and Dickens",,83076250,40847 Stark Junctions,New South Wales,2410,Australia,,False,2023-03-31 11:21:05,2023-03-31 11:21:05
VEND0666,kris_666,kris_666@vend.com,Kris-Weimann,,285035244,67210 Lori Creek,South Australia,5092,Australia,,False,2023-03-31 12:45:42,2023-03-31 12:45:42
VEND0667,reynolds_667,reynolds_667@vend.com,Reynolds-Schinner,,23901222,2481 Mills Lock,Tasmania,7060,Australia,,True,2023-03-31 14:43:37,2023-03-31 14:43:37
VEND0668,goodwin_668,goodwin_668@vend.com,Goodwin-Nitzsche,,687240161,03030 White Lakes,Western Australia,6050,Australia,,False,2023-03-31 15:18:20,2023-03-31 15:18:20
VEND0669,jaskolski_669,jaskolski_669@vend.com,Jaskolski-Dibbert,,219726886,444 Robert Mews,Western Australia,6114,Australia,,True,2023-03-31 22:09:59,2023-03-31 22:09:59
VEND0670,dicki_670,dicki_670@vend.com,Dicki Ltd,,740185974,789 Herring Manors,Tasmania,7007,Australia,,True,2023-03-31 23:27:59,2023-03-31 23:27:59
